{"type": "FeatureCollection", "features": [{"type": "Feature", "properties": {"radius_m": 1900.0, "center_lat": 51.51350000000001, "center_lon": -0.1365}, "geometry": {"type": "Polygon", "coordinates": [[[-0.1365, 51.53058711051247], [-0.13515226048144047, 51.53056652062024], [-0.13380777143462555, 51.53050480060219], [-0.1324697754654344, 51.5304020993141], [-0.13114149946730447, 51.530258664448674], [-0.1298261468131852, 51.53007484193611], [-0.1285268896051612, 51.52985107510711], [-0.12724686100073737, 51.5295879036201], [-0.12598914763457944, 51.52928596215552], [-0.12475678215425909, 51.52894597888033], [-0.12355273588825795, 51.5285687736864], [-0.12237991166414625, 51.52815525620719], [-0.12124113679446515, 51.52770642361755], [-0.12013915624741255, 51.52722335822206], [-0.11907662601895891, 51.526707224837736], [-0.11805610672250472, 51.52615926797758], [-0.11708005741163577, 51.525580808841816], [-0.11615082965094009, 51.52497324212412], [-0.1152706618492179, 51.52433803264081], [-0.11444167386875274, 51.523676711791], [-0.1136658619236117, 51.52299087385645], [-0.11294509377921422, 51.522282172150305], [-0.11228110426464998, 51.521552315023705], [-0.11167549110844098, 51.520803061740345], [-0.11112971110763346, 51.52003621822896], [-0.11064507663927245, 51.51925363272378], [-0.11022275252245953, 51.51845719130398], [-0.10986375323832433, 51.51764881334255], [-0.10956894051435442, 51.51683044687589], [-0.1093390212786298, 51.516004063905214], [-0.10917454598859841, 51.515171655641126], [-0.10907590733811208, 51.51433522770301], [-0.10904333934551759, 51.51349679528464], [-0.10907691682467092, 51.512658378297836], [-0.10917655523981404, 51.51182199650584], [-0.10934201094432514, 51.51098966465799], [-0.10957288180242979, 51.51016338763775], [-0.10986860819204045, 51.50934515563537], [-0.11022847438598095, 51.50853693935709], [-0.11065161030795093, 51.50774068528223], [-0.11113699365869491, 51.50695831097952], [-0.11168345240696508, 51.50619170049415], [-0.11228966763900682, 51.5054426998162], [-0.11295417675945285, 51.504713112441664], [-0.11367537703569, 51.50400469503638], [-0.11445152947695936, 51.503319153213525], [-0.11528076303867343, 51.5026581374345], [-0.1161610791416787, 51.502023239043105], [-0.11709035649546407, 51.50141598644244], [-0.11806635621361537, 51.50083784142372], [-0.11908672720914426, 51.50029019565549], [-0.12014901185667869, 51.499774367342], [-0.12125065190789201, 51.49929159805824], [-0.1223889946459706, 51.498843049769526], [-0.12356129926437669, 51.498429802042445], [-0.12476474345465365, 51.49805284945399], [-0.125996430187548, 51.4977130992049], [-0.12725339467128632, 51.49741136894288], [-0.12853261147044454, 51.497148384800866], [-0.12983100176848697, 51.496924779655075], [-0.13114544075672835, 51.49674109160686], [-0.13247276513218928, 51.49659776269191], [-0.133809780686571, 51.49649513782011], [-0.13515326996837135, 51.4964334639482], [-0.1365, 51.49641288948755], [-0.13784673003162864, 51.4964334639482], [-0.139190219313429, 51.49649513782011], [-0.14052723486781077, 51.49659776269191], [-0.1418545592432717, 51.49674109160686], [-0.14316899823151305, 51.496924779655075], [-0.14446738852955546, 51.497148384800866], [-0.14574660532871372, 51.49741136894288], [-0.14700356981245202, 51.4977130992049], [-0.14823525654534636, 51.49805284945399], [-0.14943870073562335, 51.498429802042445], [-0.15061100535402944, 51.498843049769526], [-0.15174934809210802, 51.49929159805824], [-0.15285098814332132, 51.499774367342], [-0.15391327279085576, 51.50029019565549], [-0.15493364378638466, 51.50083784142372], [-0.15590964350453596, 51.50141598644244], [-0.15683892085832135, 51.502023239043105], [-0.1577192369613266, 51.5026581374345], [-0.15854847052304066, 51.503319153213525], [-0.15932462296431002, 51.50400469503638], [-0.1600458232405472, 51.504713112441664], [-0.16071033236099322, 51.5054426998162], [-0.16131654759303493, 51.50619170049415], [-0.16186300634130513, 51.50695831097952], [-0.1623483896920491, 51.50774068528223], [-0.16277152561401909, 51.50853693935709], [-0.1631313918079596, 51.50934515563537], [-0.16342711819757025, 51.51016338763775], [-0.16365798905567489, 51.51098966465799], [-0.163823444760186, 51.51182199650584], [-0.1639230831753291, 51.512658378297836], [-0.16395666065448244, 51.51349679528464], [-0.16392409266188795, 51.51433522770301], [-0.1638254540114016, 51.515171655641126], [-0.16366097872137025, 51.516004063905214], [-0.16343105948564562, 51.51683044687589], [-0.1631362467616757, 51.51764881334255], [-0.1627772474775405, 51.51845719130398], [-0.16235492336072757, 51.51925363272378], [-0.16187028889236657, 51.52003621822896], [-0.16132450889155905, 51.520803061740345], [-0.16071889573535006, 51.521552315023705], [-0.16005490622078583, 51.522282172150305], [-0.15933413807638835, 51.52299087385645], [-0.15855832613124732, 51.523676711791], [-0.15772933815078213, 51.52433803264081], [-0.15684917034905996, 51.52497324212412], [-0.15591994258836425, 51.525580808841816], [-0.15494389327749536, 51.52615926797758], [-0.1539233739810411, 51.526707224837736], [-0.1528608437525875, 51.52722335822206], [-0.1517588632055349, 51.52770642361755], [-0.15062008833585377, 51.52815525620719], [-0.1494472641117421, 51.5285687736864], [-0.14824321784574096, 51.52894597888033], [-0.14701085236542058, 51.52928596215552], [-0.14575313899926265, 51.5295879036201], [-0.14447311039483884, 51.52985107510711], [-0.1431738531868149, 51.53007484193611], [-0.14185850053269558, 51.530258664448674], [-0.14053022453456565, 51.5304020993141], [-0.13919222856537444, 51.53050480060219], [-0.13784773951855955, 51.53056652062024], [-0.1365, 51.53058711051247]]]}}]}