{
"type": "FeatureCollection",
"name": "soho_cycle_parking",
"crs": { "type": "name", "properties": { "name": "urn:ogc:def:crs:OGC:1.3:CRS84" } },
"features": [
{ "type": "Feature", "properties": { "FEATURE_ID": "RWG057654", "SVDATE": "2017-06-28T00:00:00", "PRK_CARR": "FALSE", "PRK_COVER": "FALSE", "PRK_SECURE": "FALSE", "PRK_LOCKER": "FALSE", "PRK_SHEFF": "FALSE", "PRK_MSTAND": "FALSE", "PRK_PSTAND": "FALSE", "PRK_HOOP": "TRUE", "PRK_POST": "FALSE", "PRK_BUTERF": "FALSE", "PRK_WHEEL": "FALSE", "PRK_HANGAR": "FALSE", "PRK_TIER": "FALSE", "PRK_OTHER": "FALSE", "PRK_PROVIS": 1.0, "PRK_CPT": 2.0, "BOROUGH": "Westminster", "PHOTO1_URL": "https://cycleassetimages.data.tfl.gov.uk/RWG057654_1.jpg", "PHOTO2_URL": "https://cycleassetimages.data.tfl.gov.uk/RWG057654_2.jpg" }, "geometry": { "type": "Point", "coordinates": [ -0.1364818552, 51.511519289699997 ] } },
{ "type": "Feature", "properties": { "FEATURE_ID": "RWG057655", "SVDATE": "2017-06-28T00:00:00", "PRK_CARR": "FALSE", "PRK_COVER": "FALSE", "PRK_SECURE": "FALSE", "PRK_LOCKER": "FALSE", "PRK_SHEFF": "TRUE", "PRK_MSTAND": "FALSE", "PRK_PSTAND": "FALSE", "PRK_HOOP": "FALSE", "PRK_POST": "FALSE", "PRK_BUTERF": "FALSE", "PRK_WHEEL": "FALSE", "PRK_HANGAR": "FALSE", "PRK_TIER": "FALSE", "PRK_OTHER": "FALSE", "PRK_PROVIS": 4.0, "PRK_CPT": 8.0, "BOROUGH": "Westminster", "PHOTO1_URL": "https://cycleassetimages.data.tfl.gov.uk/RWG057655_1.jpg", "PHOTO2_URL": "https://cycleassetimages.data.tfl.gov.uk/RWG057655_2.jpg" }, "geometry": { "type": "Point", "coordinates": [ -0.1366393801, 51.5115402156 ] } },
{ "type": "Feature", "properties": { "FEATURE_ID": "RWG057662", "SVDATE": "2017-06-28T00:00:00", "PRK_CARR": "FALSE", "PRK_COVER": "FALSE", "PRK_SECURE": "FALSE", "PRK_LOCKER": "FALSE", "PRK_SHEFF": "FALSE", "PRK_MSTAND": "FALSE", "PRK_PSTAND": "FALSE", "PRK_HOOP": "TRUE", "PRK_POST": "FALSE", "PRK_BUTERF": "FALSE", "PRK_WHEEL": "FALSE", "PRK_HANGAR": "FALSE", "PRK_TIER": "FALSE", "PRK_OTHER": "FALSE", "PRK_PROVIS": 1.0, "PRK_CPT": 2.0, "BOROUGH": "Westminster", "PHOTO1_URL": "https://cycleassetimages.data.tfl.gov.uk/RWG057662_1.jpg", "PHOTO2_URL": "https://cycleassetimages.data.tfl.gov.uk/RWG057662_2.jpg" }, "geometry": { "type": "Point", "coordinates": [ -0.1376706116, 51.511558093200001 ] } },
{ "type": "Feature", "properties": { "FEATURE_ID": "RWG057663", "SVDATE": "2017-06-28T00:00:00", "PRK_CARR": "FALSE", "PRK_COVER": "FALSE", "PRK_SECURE": "FALSE", "PRK_LOCKER": "FALSE", "PRK_SHEFF": "FALSE", "PRK_MSTAND": "FALSE", "PRK_PSTAND": "FALSE", "PRK_HOOP": "TRUE", "PRK_POST": "FALSE", "PRK_BUTERF": "FALSE", "PRK_WHEEL": "FALSE", "PRK_HANGAR": "FALSE", "PRK_TIER": "FALSE", "PRK_OTHER": "FALSE", "PRK_PROVIS": 1.0, "PRK_CPT": 2.0, "BOROUGH": "Westminster", "PHOTO1_URL": "https://cycleassetimages.data.tfl.gov.uk/RWG057663_1.jpg", "PHOTO2_URL": "https://cycleassetimages.data.tfl.gov.uk/RWG057663_2.jpg" }, "geometry": { "type": "Point", "coordinates": [ -0.1376461992, 51.511820505099998 ] } },
{ "type": "Feature", "properties": { "FEATURE_ID": "RWG057664", "SVDATE": "2017-06-28T00:00:00", "PRK_CARR": "FALSE", "PRK_COVER": "FALSE", "PRK_SECURE": "FALSE", "PRK_LOCKER": "FALSE", "PRK_SHEFF": "FALSE", "PRK_MSTAND": "FALSE", "PRK_PSTAND": "FALSE", "PRK_HOOP": "TRUE", "PRK_POST": "FALSE", "PRK_BUTERF": "FALSE", "PRK_WHEEL": "FALSE", "PRK_HANGAR": "FALSE", "PRK_TIER": "FALSE", "PRK_OTHER": "FALSE", "PRK_PROVIS": 1.0, "PRK_CPT": 2.0, "BOROUGH": "Westminster", "PHOTO1_URL": "https://cycleassetimages.data.tfl.gov.uk/RWG057664_1.jpg", "PHOTO2_URL": "https://cycleassetimages.data.tfl.gov.uk/RWG057664_2.jpg" }, "geometry": { "type": "Point", "coordinates": [ -0.1373351112, 51.511965512800003 ] } },
{ "type": "Feature", "properties": { "FEATURE_ID": "RWG057665", "SVDATE": "2017-06-28T00:00:00", "PRK_CARR": "FALSE", "PRK_COVER": "FALSE", "PRK_SECURE": "FALSE", "PRK_LOCKER": "FALSE", "PRK_SHEFF": "TRUE", "PRK_MSTAND": "FALSE", "PRK_PSTAND": "FALSE", "PRK_HOOP": "FALSE", "PRK_POST": "FALSE", "PRK_BUTERF": "FALSE", "PRK_WHEEL": "FALSE", "PRK_HANGAR": "FALSE", "PRK_TIER": "FALSE", "PRK_OTHER": "FALSE", "PRK_PROVIS": 2.0, "PRK_CPT": 4.0, "BOROUGH": "Westminster", "PHOTO1_URL": "https://cycleassetimages.data.tfl.gov.uk/RWG057665_1.jpg", "PHOTO2_URL": "https://cycleassetimages.data.tfl.gov.uk/RWG057665_2.jpg" }, "geometry": { "type": "Point", "coordinates": [ -0.1372002481, 51.512027162700001 ] } },
{ "type": "Feature", "properties": { "FEATURE_ID": "RWG057645", "SVDATE": "2017-06-28T00:00:00", "PRK_CARR": "FALSE", "PRK_COVER": "FALSE", "PRK_SECURE": "FALSE", "PRK_LOCKER": "FALSE", "PRK_SHEFF": "TRUE", "PRK_MSTAND": "FALSE", "PRK_PSTAND": "FALSE", "PRK_HOOP": "FALSE", "PRK_POST": "FALSE", "PRK_BUTERF": "FALSE", "PRK_WHEEL": "FALSE", "PRK_HANGAR": "FALSE", "PRK_TIER": "FALSE", "PRK_OTHER": "FALSE", "PRK_PROVIS": 1.0, "PRK_CPT": 2.0, "BOROUGH": "Westminster", "PHOTO1_URL": "https://cycleassetimages.data.tfl.gov.uk/RWG057645_1.jpg", "PHOTO2_URL": "https://cycleassetimages.data.tfl.gov.uk/RWG057645_2.jpg" }, "geometry": { "type": "Point", "coordinates": [ -0.1360059124, 51.512053477499997 ] } },
{ "type": "Feature", "properties": { "FEATURE_ID": "RWG057646", "SVDATE": "2017-06-28T00:00:00", "PRK_CARR": "FALSE", "PRK_COVER": "FALSE", "PRK_SECURE": "FALSE", "PRK_LOCKER": "FALSE", "PRK_SHEFF": "TRUE", "PRK_MSTAND": "FALSE", "PRK_PSTAND": "FALSE", "PRK_HOOP": "FALSE", "PRK_POST": "FALSE", "PRK_BUTERF": "FALSE", "PRK_WHEEL": "FALSE", "PRK_HANGAR": "FALSE", "PRK_TIER": "FALSE", "PRK_OTHER": "FALSE", "PRK_PROVIS": 1.0, "PRK_CPT": 2.0, "BOROUGH": "Westminster", "PHOTO1_URL": "https://cycleassetimages.data.tfl.gov.uk/RWG057646_1.jpg", "PHOTO2_URL": "https://cycleassetimages.data.tfl.gov.uk/RWG057646_2.jpg" }, "geometry": { "type": "Point", "coordinates": [ -0.1360615537, 51.5120956194 ] } },
{ "type": "Feature", "properties": { "FEATURE_ID": "RWG058420", "SVDATE": "2017-07-25T00:00:00", "PRK_CARR": "FALSE", "PRK_COVER": "FALSE", "PRK_SECURE": "FALSE", "PRK_LOCKER": "FALSE", "PRK_SHEFF": "FALSE", "PRK_MSTAND": "FALSE", "PRK_PSTAND": "FALSE", "PRK_HOOP": "TRUE", "PRK_POST": "FALSE", "PRK_BUTERF": "FALSE", "PRK_WHEEL": "FALSE", "PRK_HANGAR": "FALSE", "PRK_TIER": "FALSE", "PRK_OTHER": "FALSE", "PRK_PROVIS": 1.0, "PRK_CPT": 2.0, "BOROUGH": "Westminster", "PHOTO1_URL": "https://cycleassetimages.data.tfl.gov.uk/RWG058420_1.jpg", "PHOTO2_URL": "https://cycleassetimages.data.tfl.gov.uk/RWG058420_2.jpg" }, "geometry": { "type": "Point", "coordinates": [ -0.1391258856, 51.511545409500002 ] } },
{ "type": "Feature", "properties": { "FEATURE_ID": "RWG058455", "SVDATE": "2017-09-03T00:00:00", "PRK_CARR": "FALSE", "PRK_COVER": "FALSE", "PRK_SECURE": "FALSE", "PRK_LOCKER": "FALSE", "PRK_SHEFF": "FALSE", "PRK_MSTAND": "FALSE", "PRK_PSTAND": "FALSE", "PRK_HOOP": "TRUE", "PRK_POST": "FALSE", "PRK_BUTERF": "FALSE", "PRK_WHEEL": "FALSE", "PRK_HANGAR": "FALSE", "PRK_TIER": "FALSE", "PRK_OTHER": "FALSE", "PRK_PROVIS": 1.0, "PRK_CPT": 2.0, "BOROUGH": "Westminster", "PHOTO1_URL": "https://cycleassetimages.data.tfl.gov.uk/RWG058455_1.jpg", "PHOTO2_URL": "https://cycleassetimages.data.tfl.gov.uk/RWG058455_2.jpg" }, "geometry": { "type": "Point", "coordinates": [ -0.1395992135, 51.511739441 ] } },
{ "type": "Feature", "properties": { "FEATURE_ID": "RWG058421", "SVDATE": "2017-07-25T00:00:00", "PRK_CARR": "FALSE", "PRK_COVER": "FALSE", "PRK_SECURE": "FALSE", "PRK_LOCKER": "FALSE", "PRK_SHEFF": "FALSE", "PRK_MSTAND": "FALSE", "PRK_PSTAND": "FALSE", "PRK_HOOP": "TRUE", "PRK_POST": "FALSE", "PRK_BUTERF": "FALSE", "PRK_WHEEL": "FALSE", "PRK_HANGAR": "FALSE", "PRK_TIER": "FALSE", "PRK_OTHER": "FALSE", "PRK_PROVIS": 1.0, "PRK_CPT": 2.0, "BOROUGH": "Westminster", "PHOTO1_URL": "https://cycleassetimages.data.tfl.gov.uk/RWG058421_1.jpg", "PHOTO2_URL": "https://cycleassetimages.data.tfl.gov.uk/RWG058421_2.jpg" }, "geometry": { "type": "Point", "coordinates": [ -0.1395868949, 51.511743494699999 ] } },
{ "type": "Feature", "properties": { "FEATURE_ID": "RWG057694", "SVDATE": "2017-06-28T00:00:00", "PRK_CARR": "FALSE", "PRK_COVER": "FALSE", "PRK_SECURE": "FALSE", "PRK_LOCKER": "FALSE", "PRK_SHEFF": "TRUE", "PRK_MSTAND": "FALSE", "PRK_PSTAND": "FALSE", "PRK_HOOP": "FALSE", "PRK_POST": "FALSE", "PRK_BUTERF": "FALSE", "PRK_WHEEL": "FALSE", "PRK_HANGAR": "FALSE", "PRK_TIER": "FALSE", "PRK_OTHER": "FALSE", "PRK_PROVIS": 2.0, "PRK_CPT": 4.0, "BOROUGH": "Westminster", "PHOTO1_URL": "https://cycleassetimages.data.tfl.gov.uk/RWG057694_1.jpg", "PHOTO2_URL": "https://cycleassetimages.data.tfl.gov.uk/RWG057694_2.jpg" }, "geometry": { "type": "Point", "coordinates": [ -0.1386830854, 51.511797099699997 ] } },
{ "type": "Feature", "properties": { "FEATURE_ID": "RWG057698", "SVDATE": "2017-06-28T00:00:00", "PRK_CARR": "FALSE", "PRK_COVER": "FALSE", "PRK_SECURE": "FALSE", "PRK_LOCKER": "FALSE", "PRK_SHEFF": "TRUE", "PRK_MSTAND": "FALSE", "PRK_PSTAND": "FALSE", "PRK_HOOP": "FALSE", "PRK_POST": "FALSE", "PRK_BUTERF": "FALSE", "PRK_WHEEL": "FALSE", "PRK_HANGAR": "FALSE", "PRK_TIER": "FALSE", "PRK_OTHER": "FALSE", "PRK_PROVIS": 9.0, "PRK_CPT": 18.0, "BOROUGH": "Westminster", "PHOTO1_URL": "https://cycleassetimages.data.tfl.gov.uk/RWG057698_1.jpg", "PHOTO2_URL": "https://cycleassetimages.data.tfl.gov.uk/RWG057698_2.jpg" }, "geometry": { "type": "Point", "coordinates": [ -0.1405871001, 51.512427374600001 ] } },
{ "type": "Feature", "properties": { "FEATURE_ID": "RWG057609", "SVDATE": "2017-06-28T00:00:00", "PRK_CARR": "FALSE", "PRK_COVER": "FALSE", "PRK_SECURE": "FALSE", "PRK_LOCKER": "FALSE", "PRK_SHEFF": "TRUE", "PRK_MSTAND": "FALSE", "PRK_PSTAND": "FALSE", "PRK_HOOP": "FALSE", "PRK_POST": "FALSE", "PRK_BUTERF": "FALSE", "PRK_WHEEL": "FALSE", "PRK_HANGAR": "FALSE", "PRK_TIER": "FALSE", "PRK_OTHER": "FALSE", "PRK_PROVIS": 3.0, "PRK_CPT": 6.0, "BOROUGH": "Westminster", "PHOTO1_URL": "https://cycleassetimages.data.tfl.gov.uk/RWG057609_1.jpg", "PHOTO2_URL": "https://cycleassetimages.data.tfl.gov.uk/RWG057609_2.jpg" }, "geometry": { "type": "Point", "coordinates": [ -0.1402826685, 51.5133596951 ] } },
{ "type": "Feature", "properties": { "FEATURE_ID": "RWG057610", "SVDATE": "2017-06-28T00:00:00", "PRK_CARR": "FALSE", "PRK_COVER": "FALSE", "PRK_SECURE": "FALSE", "PRK_LOCKER": "FALSE", "PRK_SHEFF": "TRUE", "PRK_MSTAND": "FALSE", "PRK_PSTAND": "FALSE", "PRK_HOOP": "FALSE", "PRK_POST": "FALSE", "PRK_BUTERF": "FALSE", "PRK_WHEEL": "FALSE", "PRK_HANGAR": "FALSE", "PRK_TIER": "FALSE", "PRK_OTHER": "FALSE", "PRK_PROVIS": 3.0, "PRK_CPT": 6.0, "BOROUGH": "Westminster", "PHOTO1_URL": "https://cycleassetimages.data.tfl.gov.uk/RWG057610_1.jpg", "PHOTO2_URL": "https://cycleassetimages.data.tfl.gov.uk/RWG057610_2.jpg" }, "geometry": { "type": "Point", "coordinates": [ -0.1403072802, 51.513382690299999 ] } },
{ "type": "Feature", "properties": { "FEATURE_ID": "RWG057601", "SVDATE": "2017-06-28T00:00:00", "PRK_CARR": "FALSE", "PRK_COVER": "FALSE", "PRK_SECURE": "FALSE", "PRK_LOCKER": "FALSE", "PRK_SHEFF": "FALSE", "PRK_MSTAND": "FALSE", "PRK_PSTAND": "FALSE", "PRK_HOOP": "TRUE", "PRK_POST": "FALSE", "PRK_BUTERF": "FALSE", "PRK_WHEEL": "FALSE", "PRK_HANGAR": "FALSE", "PRK_TIER": "FALSE", "PRK_OTHER": "FALSE", "PRK_PROVIS": 1.0, "PRK_CPT": 2.0, "BOROUGH": "Westminster", "PHOTO1_URL": "https://cycleassetimages.data.tfl.gov.uk/RWG057601_1.jpg", "PHOTO2_URL": "https://cycleassetimages.data.tfl.gov.uk/RWG057601_2.jpg" }, "geometry": { "type": "Point", "coordinates": [ -0.1405243132, 51.513868679 ] } },
{ "type": "Feature", "properties": { "FEATURE_ID": "RWG058557", "SVDATE": "2017-09-04T00:00:00", "PRK_CARR": "FALSE", "PRK_COVER": "FALSE", "PRK_SECURE": "FALSE", "PRK_LOCKER": "FALSE", "PRK_SHEFF": "FALSE", "PRK_MSTAND": "FALSE", "PRK_PSTAND": "FALSE", "PRK_HOOP": "TRUE", "PRK_POST": "FALSE", "PRK_BUTERF": "FALSE", "PRK_WHEEL": "FALSE", "PRK_HANGAR": "FALSE", "PRK_TIER": "FALSE", "PRK_OTHER": "FALSE", "PRK_PROVIS": 1.0, "PRK_CPT": 2.0, "BOROUGH": "Westminster", "PHOTO1_URL": "https://cycleassetimages.data.tfl.gov.uk/RWG058557_1.jpg", "PHOTO2_URL": "https://cycleassetimages.data.tfl.gov.uk/RWG058557_2.jpg" }, "geometry": { "type": "Point", "coordinates": [ -0.1339299195, 51.5115529917 ] } },
{ "type": "Feature", "properties": { "FEATURE_ID": "RWG058559", "SVDATE": "2017-09-04T00:00:00", "PRK_CARR": "FALSE", "PRK_COVER": "FALSE", "PRK_SECURE": "FALSE", "PRK_LOCKER": "FALSE", "PRK_SHEFF": "TRUE", "PRK_MSTAND": "FALSE", "PRK_PSTAND": "FALSE", "PRK_HOOP": "FALSE", "PRK_POST": "FALSE", "PRK_BUTERF": "FALSE", "PRK_WHEEL": "FALSE", "PRK_HANGAR": "FALSE", "PRK_TIER": "FALSE", "PRK_OTHER": "FALSE", "PRK_PROVIS": 3.0, "PRK_CPT": 6.0, "BOROUGH": "Westminster", "PHOTO1_URL": "https://cycleassetimages.data.tfl.gov.uk/RWG058559_1.jpg", "PHOTO2_URL": "https://cycleassetimages.data.tfl.gov.uk/RWG058559_2.jpg" }, "geometry": { "type": "Point", "coordinates": [ -0.133202127, 51.511714264 ] } },
{ "type": "Feature", "properties": { "FEATURE_ID": "RWG057807", "SVDATE": "2017-06-29T00:00:00", "PRK_CARR": "FALSE", "PRK_COVER": "FALSE", "PRK_SECURE": "FALSE", "PRK_LOCKER": "FALSE", "PRK_SHEFF": "FALSE", "PRK_MSTAND": "FALSE", "PRK_PSTAND": "FALSE", "PRK_HOOP": "TRUE", "PRK_POST": "FALSE", "PRK_BUTERF": "FALSE", "PRK_WHEEL": "FALSE", "PRK_HANGAR": "FALSE", "PRK_TIER": "FALSE", "PRK_OTHER": "FALSE", "PRK_PROVIS": 1.0, "PRK_CPT": 2.0, "BOROUGH": "Westminster", "PHOTO1_URL": "https://cycleassetimages.data.tfl.gov.uk/RWG057807_1.jpg", "PHOTO2_URL": "https://cycleassetimages.data.tfl.gov.uk/RWG057807_2.jpg" }, "geometry": { "type": "Point", "coordinates": [ -0.1316688366, 51.512351597 ] } },
{ "type": "Feature", "properties": { "FEATURE_ID": "RWG057521", "SVDATE": "2017-06-28T00:00:00", "PRK_CARR": "FALSE", "PRK_COVER": "FALSE", "PRK_SECURE": "FALSE", "PRK_LOCKER": "FALSE", "PRK_SHEFF": "TRUE", "PRK_MSTAND": "FALSE", "PRK_PSTAND": "FALSE", "PRK_HOOP": "FALSE", "PRK_POST": "FALSE", "PRK_BUTERF": "FALSE", "PRK_WHEEL": "FALSE", "PRK_HANGAR": "FALSE", "PRK_TIER": "FALSE", "PRK_OTHER": "FALSE", "PRK_PROVIS": 1.0, "PRK_CPT": 2.0, "BOROUGH": "Westminster", "PHOTO1_URL": "https://cycleassetimages.data.tfl.gov.uk/RWG057521_1.jpg", "PHOTO2_URL": "https://cycleassetimages.data.tfl.gov.uk/RWG057521_2.jpg" }, "geometry": { "type": "Point", "coordinates": [ -0.1318239397, 51.5125331566 ] } },
{ "type": "Feature", "properties": { "FEATURE_ID": "RWG057518", "SVDATE": "2017-06-28T00:00:00", "PRK_CARR": "FALSE", "PRK_COVER": "FALSE", "PRK_SECURE": "FALSE", "PRK_LOCKER": "FALSE", "PRK_SHEFF": "TRUE", "PRK_MSTAND": "FALSE", "PRK_PSTAND": "FALSE", "PRK_HOOP": "FALSE", "PRK_POST": "FALSE", "PRK_BUTERF": "FALSE", "PRK_WHEEL": "FALSE", "PRK_HANGAR": "FALSE", "PRK_TIER": "FALSE", "PRK_OTHER": "FALSE", "PRK_PROVIS": 1.0, "PRK_CPT": 2.0, "BOROUGH": "Westminster", "PHOTO1_URL": "https://cycleassetimages.data.tfl.gov.uk/RWG057518_1.jpg", "PHOTO2_URL": "https://cycleassetimages.data.tfl.gov.uk/RWG057518_2.jpg" }, "geometry": { "type": "Point", "coordinates": [ -0.1318573687, 51.512577376499998 ] } },
{ "type": "Feature", "properties": { "FEATURE_ID": "RWG057477", "SVDATE": "2017-06-28T00:00:00", "PRK_CARR": "FALSE", "PRK_COVER": "FALSE", "PRK_SECURE": "FALSE", "PRK_LOCKER": "FALSE", "PRK_SHEFF": "FALSE", "PRK_MSTAND": "FALSE", "PRK_PSTAND": "FALSE", "PRK_HOOP": "TRUE", "PRK_POST": "FALSE", "PRK_BUTERF": "FALSE", "PRK_WHEEL": "FALSE", "PRK_HANGAR": "FALSE", "PRK_TIER": "FALSE", "PRK_OTHER": "FALSE", "PRK_PROVIS": 1.0, "PRK_CPT": 2.0, "BOROUGH": "Westminster", "PHOTO1_URL": "https://cycleassetimages.data.tfl.gov.uk/RWG057477_1.jpg", "PHOTO2_URL": "https://cycleassetimages.data.tfl.gov.uk/RWG057477_2.jpg" }, "geometry": { "type": "Point", "coordinates": [ -0.1318934233, 51.512647768500003 ] } },
{ "type": "Feature", "properties": { "FEATURE_ID": "RWG057331", "SVDATE": "2017-06-28T00:00:00", "PRK_CARR": "FALSE", "PRK_COVER": "TRUE", "PRK_SECURE": "FALSE", "PRK_LOCKER": "FALSE", "PRK_SHEFF": "TRUE", "PRK_MSTAND": "FALSE", "PRK_PSTAND": "FALSE", "PRK_HOOP": "FALSE", "PRK_POST": "FALSE", "PRK_BUTERF": "FALSE", "PRK_WHEEL": "FALSE", "PRK_HANGAR": "FALSE", "PRK_TIER": "FALSE", "PRK_OTHER": "FALSE", "PRK_PROVIS": 1.0, "PRK_CPT": 6.0, "BOROUGH": "Westminster", "PHOTO1_URL": "https://cycleassetimages.data.tfl.gov.uk/RWG057331_1.jpg", "PHOTO2_URL": "https://cycleassetimages.data.tfl.gov.uk/RWG057331_2.jpg" }, "geometry": { "type": "Point", "coordinates": [ -0.1351233742, 51.512829208100001 ] } },
{ "type": "Feature", "properties": { "FEATURE_ID": "RWG057330", "SVDATE": "2017-06-28T00:00:00", "PRK_CARR": "FALSE", "PRK_COVER": "TRUE", "PRK_SECURE": "FALSE", "PRK_LOCKER": "FALSE", "PRK_SHEFF": "TRUE", "PRK_MSTAND": "FALSE", "PRK_PSTAND": "FALSE", "PRK_HOOP": "FALSE", "PRK_POST": "FALSE", "PRK_BUTERF": "FALSE", "PRK_WHEEL": "FALSE", "PRK_HANGAR": "FALSE", "PRK_TIER": "FALSE", "PRK_OTHER": "FALSE", "PRK_PROVIS": 1.0, "PRK_CPT": 10.0, "BOROUGH": "Westminster", "PHOTO1_URL": "https://cycleassetimages.data.tfl.gov.uk/RWG057330_1.jpg", "PHOTO2_URL": "https://cycleassetimages.data.tfl.gov.uk/RWG057330_2.jpg" }, "geometry": { "type": "Point", "coordinates": [ -0.1350329523, 51.512861624499998 ] } },
{ "type": "Feature", "properties": { "FEATURE_ID": "RWG057299", "SVDATE": "2017-06-27T00:00:00", "PRK_CARR": "FALSE", "PRK_COVER": "FALSE", "PRK_SECURE": "FALSE", "PRK_LOCKER": "FALSE", "PRK_SHEFF": "TRUE", "PRK_MSTAND": "FALSE", "PRK_PSTAND": "FALSE", "PRK_HOOP": "FALSE", "PRK_POST": "FALSE", "PRK_BUTERF": "FALSE", "PRK_WHEEL": "FALSE", "PRK_HANGAR": "FALSE", "PRK_TIER": "FALSE", "PRK_OTHER": "FALSE", "PRK_PROVIS": 4.0, "PRK_CPT": 8.0, "BOROUGH": "Westminster", "PHOTO1_URL": "https://cycleassetimages.data.tfl.gov.uk/RWG057299_1.jpg", "PHOTO2_URL": "https://cycleassetimages.data.tfl.gov.uk/RWG057299_2.jpg" }, "geometry": { "type": "Point", "coordinates": [ -0.1310654349, 51.512915851 ] } },
{ "type": "Feature", "properties": { "FEATURE_ID": "RWG057434", "SVDATE": "2017-06-28T00:00:00", "PRK_CARR": "FALSE", "PRK_COVER": "FALSE", "PRK_SECURE": "FALSE", "PRK_LOCKER": "FALSE", "PRK_SHEFF": "FALSE", "PRK_MSTAND": "FALSE", "PRK_PSTAND": "FALSE", "PRK_HOOP": "TRUE", "PRK_POST": "FALSE", "PRK_BUTERF": "FALSE", "PRK_WHEEL": "FALSE", "PRK_HANGAR": "FALSE", "PRK_TIER": "FALSE", "PRK_OTHER": "FALSE", "PRK_PROVIS": 1.0, "PRK_CPT": 2.0, "BOROUGH": "Westminster", "PHOTO1_URL": "https://cycleassetimages.data.tfl.gov.uk/RWG057434_1.jpg", "PHOTO2_URL": "https://cycleassetimages.data.tfl.gov.uk/RWG057434_2.jpg" }, "geometry": { "type": "Point", "coordinates": [ -0.1320868645, 51.512974630199999 ] } },
{ "type": "Feature", "properties": { "FEATURE_ID": "RWG057328", "SVDATE": "2017-06-27T00:00:00", "PRK_CARR": "FALSE", "PRK_COVER": "FALSE", "PRK_SECURE": "FALSE", "PRK_LOCKER": "FALSE", "PRK_SHEFF": "TRUE", "PRK_MSTAND": "FALSE", "PRK_PSTAND": "FALSE", "PRK_HOOP": "FALSE", "PRK_POST": "FALSE", "PRK_BUTERF": "FALSE", "PRK_WHEEL": "FALSE", "PRK_HANGAR": "FALSE", "PRK_TIER": "FALSE", "PRK_OTHER": "FALSE", "PRK_PROVIS": 4.0, "PRK_CPT": 8.0, "BOROUGH": "Westminster", "PHOTO1_URL": "https://cycleassetimages.data.tfl.gov.uk/RWG057328_1.jpg", "PHOTO2_URL": "https://cycleassetimages.data.tfl.gov.uk/RWG057328_2.jpg" }, "geometry": { "type": "Point", "coordinates": [ -0.133528817, 51.513099292600003 ] } },
{ "type": "Feature", "properties": { "FEATURE_ID": "RWG057297", "SVDATE": "2017-06-27T00:00:00", "PRK_CARR": "FALSE", "PRK_COVER": "FALSE", "PRK_SECURE": "FALSE", "PRK_LOCKER": "FALSE", "PRK_SHEFF": "FALSE", "PRK_MSTAND": "FALSE", "PRK_PSTAND": "FALSE", "PRK_HOOP": "TRUE", "PRK_POST": "FALSE", "PRK_BUTERF": "FALSE", "PRK_WHEEL": "FALSE", "PRK_HANGAR": "FALSE", "PRK_TIER": "FALSE", "PRK_OTHER": "FALSE", "PRK_PROVIS": 1.0, "PRK_CPT": 2.0, "BOROUGH": "Westminster", "PHOTO1_URL": "https://cycleassetimages.data.tfl.gov.uk/RWG057297_1.jpg", "PHOTO2_URL": "https://cycleassetimages.data.tfl.gov.uk/RWG057297_2.jpg" }, "geometry": { "type": "Point", "coordinates": [ -0.1313577811, 51.513111518499997 ] } },
{ "type": "Feature", "properties": { "FEATURE_ID": "RWG057453", "SVDATE": "2017-06-28T00:00:00", "PRK_CARR": "FALSE", "PRK_COVER": "FALSE", "PRK_SECURE": "FALSE", "PRK_LOCKER": "FALSE", "PRK_SHEFF": "FALSE", "PRK_MSTAND": "FALSE", "PRK_PSTAND": "FALSE", "PRK_HOOP": "TRUE", "PRK_POST": "FALSE", "PRK_BUTERF": "FALSE", "PRK_WHEEL": "FALSE", "PRK_HANGAR": "FALSE", "PRK_TIER": "FALSE", "PRK_OTHER": "FALSE", "PRK_PROVIS": 1.0, "PRK_CPT": 2.0, "BOROUGH": "Westminster", "PHOTO1_URL": "https://cycleassetimages.data.tfl.gov.uk/RWG057453_1.jpg", "PHOTO2_URL": "https://cycleassetimages.data.tfl.gov.uk/RWG057453_2.jpg" }, "geometry": { "type": "Point", "coordinates": [ -0.132234818, 51.513182719 ] } },
{ "type": "Feature", "properties": { "FEATURE_ID": "RWG057641", "SVDATE": "2017-06-28T00:00:00", "PRK_CARR": "FALSE", "PRK_COVER": "FALSE", "PRK_SECURE": "FALSE", "PRK_LOCKER": "FALSE", "PRK_SHEFF": "TRUE", "PRK_MSTAND": "FALSE", "PRK_PSTAND": "FALSE", "PRK_HOOP": "FALSE", "PRK_POST": "FALSE", "PRK_BUTERF": "FALSE", "PRK_WHEEL": "FALSE", "PRK_HANGAR": "FALSE", "PRK_TIER": "FALSE", "PRK_OTHER": "FALSE", "PRK_PROVIS": 3.0, "PRK_CPT": 6.0, "BOROUGH": "Westminster", "PHOTO1_URL": "https://cycleassetimages.data.tfl.gov.uk/RWG057641_1.jpg", "PHOTO2_URL": "https://cycleassetimages.data.tfl.gov.uk/RWG057641_2.jpg" }, "geometry": { "type": "Point", "coordinates": [ -0.1353661305, 51.513185912 ] } },
{ "type": "Feature", "properties": { "FEATURE_ID": "RWG057444", "SVDATE": "2017-06-28T00:00:00", "PRK_CARR": "FALSE", "PRK_COVER": "FALSE", "PRK_SECURE": "FALSE", "PRK_LOCKER": "FALSE", "PRK_SHEFF": "FALSE", "PRK_MSTAND": "FALSE", "PRK_PSTAND": "FALSE", "PRK_HOOP": "TRUE", "PRK_POST": "FALSE", "PRK_BUTERF": "FALSE", "PRK_WHEEL": "FALSE", "PRK_HANGAR": "FALSE", "PRK_TIER": "FALSE", "PRK_OTHER": "FALSE", "PRK_PROVIS": 1.0, "PRK_CPT": 2.0, "BOROUGH": "Westminster", "PHOTO1_URL": "https://cycleassetimages.data.tfl.gov.uk/RWG057444_1.jpg", "PHOTO2_URL": "https://cycleassetimages.data.tfl.gov.uk/RWG057444_2.jpg" }, "geometry": { "type": "Point", "coordinates": [ -0.1323707817, 51.513362634899998 ] } },
{ "type": "Feature", "properties": { "FEATURE_ID": "RWG057324", "SVDATE": "2017-06-27T00:00:00", "PRK_CARR": "FALSE", "PRK_COVER": "FALSE", "PRK_SECURE": "FALSE", "PRK_LOCKER": "FALSE", "PRK_SHEFF": "TRUE", "PRK_MSTAND": "FALSE", "PRK_PSTAND": "FALSE", "PRK_HOOP": "FALSE", "PRK_POST": "FALSE", "PRK_BUTERF": "FALSE", "PRK_WHEEL": "FALSE", "PRK_HANGAR": "FALSE", "PRK_TIER": "FALSE", "PRK_OTHER": "FALSE", "PRK_PROVIS": 6.0, "PRK_CPT": 12.0, "BOROUGH": "Westminster", "PHOTO1_URL": "https://cycleassetimages.data.tfl.gov.uk/RWG057324_1.jpg", "PHOTO2_URL": "https://cycleassetimages.data.tfl.gov.uk/RWG057324_2.jpg" }, "geometry": { "type": "Point", "coordinates": [ -0.1344662906, 51.513545239300001 ] } },
{ "type": "Feature", "properties": { "FEATURE_ID": "RWG057326", "SVDATE": "2017-06-27T00:00:00", "PRK_CARR": "FALSE", "PRK_COVER": "FALSE", "PRK_SECURE": "FALSE", "PRK_LOCKER": "FALSE", "PRK_SHEFF": "FALSE", "PRK_MSTAND": "FALSE", "PRK_PSTAND": "FALSE", "PRK_HOOP": "TRUE", "PRK_POST": "FALSE", "PRK_BUTERF": "FALSE", "PRK_WHEEL": "FALSE", "PRK_HANGAR": "FALSE", "PRK_TIER": "FALSE", "PRK_OTHER": "FALSE", "PRK_PROVIS": 1.0, "PRK_CPT": 2.0, "BOROUGH": "Westminster", "PHOTO1_URL": "https://cycleassetimages.data.tfl.gov.uk/RWG057326_1.jpg", "PHOTO2_URL": "https://cycleassetimages.data.tfl.gov.uk/RWG057326_2.jpg" }, "geometry": { "type": "Point", "coordinates": [ -0.1346136519, 51.5137612479 ] } },
{ "type": "Feature", "properties": { "FEATURE_ID": "RWG057638", "SVDATE": "2017-06-28T00:00:00", "PRK_CARR": "FALSE", "PRK_COVER": "FALSE", "PRK_SECURE": "FALSE", "PRK_LOCKER": "FALSE", "PRK_SHEFF": "TRUE", "PRK_MSTAND": "FALSE", "PRK_PSTAND": "FALSE", "PRK_HOOP": "FALSE", "PRK_POST": "FALSE", "PRK_BUTERF": "FALSE", "PRK_WHEEL": "FALSE", "PRK_HANGAR": "FALSE", "PRK_TIER": "FALSE", "PRK_OTHER": "FALSE", "PRK_PROVIS": 2.0, "PRK_CPT": 4.0, "BOROUGH": "Westminster", "PHOTO1_URL": "https://cycleassetimages.data.tfl.gov.uk/RWG057638_1.jpg", "PHOTO2_URL": "https://cycleassetimages.data.tfl.gov.uk/RWG057638_2.jpg" }, "geometry": { "type": "Point", "coordinates": [ -0.1354658855, 51.513782864200003 ] } },
{ "type": "Feature", "properties": { "FEATURE_ID": "RWG057647", "SVDATE": "2017-06-28T00:00:00", "PRK_CARR": "FALSE", "PRK_COVER": "FALSE", "PRK_SECURE": "FALSE", "PRK_LOCKER": "FALSE", "PRK_SHEFF": "TRUE", "PRK_MSTAND": "FALSE", "PRK_PSTAND": "FALSE", "PRK_HOOP": "FALSE", "PRK_POST": "FALSE", "PRK_BUTERF": "FALSE", "PRK_WHEEL": "FALSE", "PRK_HANGAR": "FALSE", "PRK_TIER": "FALSE", "PRK_OTHER": "FALSE", "PRK_PROVIS": 1.0, "PRK_CPT": 2.0, "BOROUGH": "Westminster", "PHOTO1_URL": "https://cycleassetimages.data.tfl.gov.uk/RWG057647_1.jpg", "PHOTO2_URL": "https://cycleassetimages.data.tfl.gov.uk/RWG057647_2.jpg" }, "geometry": { "type": "Point", "coordinates": [ -0.1360972598, 51.512135165700002 ] } },
{ "type": "Feature", "properties": { "FEATURE_ID": "RWG057648", "SVDATE": "2017-06-28T00:00:00", "PRK_CARR": "FALSE", "PRK_COVER": "FALSE", "PRK_SECURE": "FALSE", "PRK_LOCKER": "FALSE", "PRK_SHEFF": "TRUE", "PRK_MSTAND": "FALSE", "PRK_PSTAND": "FALSE", "PRK_HOOP": "FALSE", "PRK_POST": "FALSE", "PRK_BUTERF": "FALSE", "PRK_WHEEL": "FALSE", "PRK_HANGAR": "FALSE", "PRK_TIER": "FALSE", "PRK_OTHER": "FALSE", "PRK_PROVIS": 1.0, "PRK_CPT": 2.0, "BOROUGH": "Westminster", "PHOTO1_URL": "https://cycleassetimages.data.tfl.gov.uk/RWG057648_1.jpg", "PHOTO2_URL": "https://cycleassetimages.data.tfl.gov.uk/RWG057648_2.jpg" }, "geometry": { "type": "Point", "coordinates": [ -0.1361260121, 51.512184317299997 ] } },
{ "type": "Feature", "properties": { "FEATURE_ID": "RWG057649", "SVDATE": "2017-06-28T00:00:00", "PRK_CARR": "FALSE", "PRK_COVER": "FALSE", "PRK_SECURE": "FALSE", "PRK_LOCKER": "FALSE", "PRK_SHEFF": "TRUE", "PRK_MSTAND": "FALSE", "PRK_PSTAND": "FALSE", "PRK_HOOP": "FALSE", "PRK_POST": "FALSE", "PRK_BUTERF": "FALSE", "PRK_WHEEL": "FALSE", "PRK_HANGAR": "FALSE", "PRK_TIER": "FALSE", "PRK_OTHER": "FALSE", "PRK_PROVIS": 1.0, "PRK_CPT": 2.0, "BOROUGH": "Westminster", "PHOTO1_URL": "https://cycleassetimages.data.tfl.gov.uk/RWG057649_1.jpg", "PHOTO2_URL": "https://cycleassetimages.data.tfl.gov.uk/RWG057649_2.jpg" }, "geometry": { "type": "Point", "coordinates": [ -0.1361628414, 51.512232395700003 ] } },
{ "type": "Feature", "properties": { "FEATURE_ID": "RWG057651", "SVDATE": "2017-06-28T00:00:00", "PRK_CARR": "FALSE", "PRK_COVER": "FALSE", "PRK_SECURE": "FALSE", "PRK_LOCKER": "FALSE", "PRK_SHEFF": "TRUE", "PRK_MSTAND": "FALSE", "PRK_PSTAND": "FALSE", "PRK_HOOP": "FALSE", "PRK_POST": "FALSE", "PRK_BUTERF": "FALSE", "PRK_WHEEL": "FALSE", "PRK_HANGAR": "FALSE", "PRK_TIER": "FALSE", "PRK_OTHER": "FALSE", "PRK_PROVIS": 1.0, "PRK_CPT": 2.0, "BOROUGH": "Westminster", "PHOTO1_URL": "https://cycleassetimages.data.tfl.gov.uk/RWG057651_1.jpg", "PHOTO2_URL": "https://cycleassetimages.data.tfl.gov.uk/RWG057651_2.jpg" }, "geometry": { "type": "Point", "coordinates": [ -0.1364095064, 51.512690628900003 ] } },
{ "type": "Feature", "properties": { "FEATURE_ID": "RWG057652", "SVDATE": "2017-06-28T00:00:00", "PRK_CARR": "FALSE", "PRK_COVER": "FALSE", "PRK_SECURE": "FALSE", "PRK_LOCKER": "FALSE", "PRK_SHEFF": "TRUE", "PRK_MSTAND": "FALSE", "PRK_PSTAND": "FALSE", "PRK_HOOP": "FALSE", "PRK_POST": "FALSE", "PRK_BUTERF": "FALSE", "PRK_WHEEL": "FALSE", "PRK_HANGAR": "FALSE", "PRK_TIER": "FALSE", "PRK_OTHER": "FALSE", "PRK_PROVIS": 1.0, "PRK_CPT": 2.0, "BOROUGH": "Westminster", "PHOTO1_URL": "https://cycleassetimages.data.tfl.gov.uk/RWG057652_1.jpg", "PHOTO2_URL": "https://cycleassetimages.data.tfl.gov.uk/RWG057652_2.jpg" }, "geometry": { "type": "Point", "coordinates": [ -0.136451076, 51.512752418200002 ] } },
{ "type": "Feature", "properties": { "FEATURE_ID": "RWG057614", "SVDATE": "2017-06-28T00:00:00", "PRK_CARR": "FALSE", "PRK_COVER": "FALSE", "PRK_SECURE": "FALSE", "PRK_LOCKER": "FALSE", "PRK_SHEFF": "FALSE", "PRK_MSTAND": "FALSE", "PRK_PSTAND": "FALSE", "PRK_HOOP": "TRUE", "PRK_POST": "FALSE", "PRK_BUTERF": "FALSE", "PRK_WHEEL": "FALSE", "PRK_HANGAR": "FALSE", "PRK_TIER": "FALSE", "PRK_OTHER": "FALSE", "PRK_PROVIS": 1.0, "PRK_CPT": 2.0, "BOROUGH": "Westminster", "PHOTO1_URL": "https://cycleassetimages.data.tfl.gov.uk/RWG057614_1.jpg", "PHOTO2_URL": "https://cycleassetimages.data.tfl.gov.uk/RWG057614_2.jpg" }, "geometry": { "type": "Point", "coordinates": [ -0.1376642555, 51.512938080200001 ] } },
{ "type": "Feature", "properties": { "FEATURE_ID": "RWG057623", "SVDATE": "2017-06-28T00:00:00", "PRK_CARR": "FALSE", "PRK_COVER": "FALSE", "PRK_SECURE": "FALSE", "PRK_LOCKER": "FALSE", "PRK_SHEFF": "FALSE", "PRK_MSTAND": "FALSE", "PRK_PSTAND": "FALSE", "PRK_HOOP": "TRUE", "PRK_POST": "FALSE", "PRK_BUTERF": "FALSE", "PRK_WHEEL": "FALSE", "PRK_HANGAR": "FALSE", "PRK_TIER": "FALSE", "PRK_OTHER": "FALSE", "PRK_PROVIS": 1.0, "PRK_CPT": 2.0, "BOROUGH": "Westminster", "PHOTO1_URL": "https://cycleassetimages.data.tfl.gov.uk/RWG057623_1.jpg", "PHOTO2_URL": "https://cycleassetimages.data.tfl.gov.uk/RWG057623_2.jpg" }, "geometry": { "type": "Point", "coordinates": [ -0.1379124818, 51.513228395 ] } },
{ "type": "Feature", "properties": { "FEATURE_ID": "RWG057624", "SVDATE": "2017-06-28T00:00:00", "PRK_CARR": "FALSE", "PRK_COVER": "FALSE", "PRK_SECURE": "FALSE", "PRK_LOCKER": "FALSE", "PRK_SHEFF": "FALSE", "PRK_MSTAND": "FALSE", "PRK_PSTAND": "FALSE", "PRK_HOOP": "TRUE", "PRK_POST": "FALSE", "PRK_BUTERF": "FALSE", "PRK_WHEEL": "FALSE", "PRK_HANGAR": "FALSE", "PRK_TIER": "FALSE", "PRK_OTHER": "FALSE", "PRK_PROVIS": 1.0, "PRK_CPT": 2.0, "BOROUGH": "Westminster", "PHOTO1_URL": "https://cycleassetimages.data.tfl.gov.uk/RWG057624_1.jpg", "PHOTO2_URL": "https://cycleassetimages.data.tfl.gov.uk/RWG057624_2.jpg" }, "geometry": { "type": "Point", "coordinates": [ -0.1371495124, 51.5132631424 ] } },
{ "type": "Feature", "properties": { "FEATURE_ID": "RWG057622", "SVDATE": "2017-06-29T00:00:00", "PRK_CARR": "TRUE", "PRK_COVER": "FALSE", "PRK_SECURE": "FALSE", "PRK_LOCKER": "FALSE", "PRK_SHEFF": "TRUE", "PRK_MSTAND": "FALSE", "PRK_PSTAND": "FALSE", "PRK_HOOP": "FALSE", "PRK_POST": "FALSE", "PRK_BUTERF": "FALSE", "PRK_WHEEL": "FALSE", "PRK_HANGAR": "FALSE", "PRK_TIER": "FALSE", "PRK_OTHER": "FALSE", "PRK_PROVIS": 4.0, "PRK_CPT": 8.0, "BOROUGH": "Westminster", "PHOTO1_URL": "https://cycleassetimages.data.tfl.gov.uk/RWG057622_1.jpg", "PHOTO2_URL": "https://cycleassetimages.data.tfl.gov.uk/RWG057622_2.jpg" }, "geometry": { "type": "Point", "coordinates": [ -0.1379397943, 51.513303502200003 ] } },
{ "type": "Feature", "properties": { "FEATURE_ID": "RWG057629", "SVDATE": "2017-06-28T00:00:00", "PRK_CARR": "FALSE", "PRK_COVER": "FALSE", "PRK_SECURE": "FALSE", "PRK_LOCKER": "FALSE", "PRK_SHEFF": "TRUE", "PRK_MSTAND": "FALSE", "PRK_PSTAND": "FALSE", "PRK_HOOP": "FALSE", "PRK_POST": "FALSE", "PRK_BUTERF": "FALSE", "PRK_WHEEL": "FALSE", "PRK_HANGAR": "FALSE", "PRK_TIER": "FALSE", "PRK_OTHER": "FALSE", "PRK_PROVIS": 5.0, "PRK_CPT": 10.0, "BOROUGH": "Westminster", "PHOTO1_URL": "https://cycleassetimages.data.tfl.gov.uk/RWG057629_1.jpg", "PHOTO2_URL": "https://cycleassetimages.data.tfl.gov.uk/RWG057629_2.jpg" }, "geometry": { "type": "Point", "coordinates": [ -0.1366201229, 51.5133367635 ] } },
{ "type": "Feature", "properties": { "FEATURE_ID": "RWG057620", "SVDATE": "2017-06-28T00:00:00", "PRK_CARR": "FALSE", "PRK_COVER": "FALSE", "PRK_SECURE": "FALSE", "PRK_LOCKER": "FALSE", "PRK_SHEFF": "FALSE", "PRK_MSTAND": "FALSE", "PRK_PSTAND": "FALSE", "PRK_HOOP": "TRUE", "PRK_POST": "FALSE", "PRK_BUTERF": "FALSE", "PRK_WHEEL": "FALSE", "PRK_HANGAR": "FALSE", "PRK_TIER": "FALSE", "PRK_OTHER": "FALSE", "PRK_PROVIS": 1.0, "PRK_CPT": 2.0, "BOROUGH": "Westminster", "PHOTO1_URL": "https://cycleassetimages.data.tfl.gov.uk/RWG057620_1.jpg", "PHOTO2_URL": "https://cycleassetimages.data.tfl.gov.uk/RWG057620_2.jpg" }, "geometry": { "type": "Point", "coordinates": [ -0.1380066792, 51.513343942200002 ] } },
{ "type": "Feature", "properties": { "FEATURE_ID": "RWG057630", "SVDATE": "2017-06-28T00:00:00", "PRK_CARR": "FALSE", "PRK_COVER": "FALSE", "PRK_SECURE": "FALSE", "PRK_LOCKER": "FALSE", "PRK_SHEFF": "TRUE", "PRK_MSTAND": "FALSE", "PRK_PSTAND": "FALSE", "PRK_HOOP": "FALSE", "PRK_POST": "FALSE", "PRK_BUTERF": "FALSE", "PRK_WHEEL": "FALSE", "PRK_HANGAR": "FALSE", "PRK_TIER": "FALSE", "PRK_OTHER": "FALSE", "PRK_PROVIS": 4.0, "PRK_CPT": 8.0, "BOROUGH": "Westminster", "PHOTO1_URL": "https://cycleassetimages.data.tfl.gov.uk/RWG057630_1.jpg", "PHOTO2_URL": "https://cycleassetimages.data.tfl.gov.uk/RWG057630_2.jpg" }, "geometry": { "type": "Point", "coordinates": [ -0.1361555872, 51.513446063499998 ] } },
{ "type": "Feature", "properties": { "FEATURE_ID": "RWG057632", "SVDATE": "2017-06-28T00:00:00", "PRK_CARR": "FALSE", "PRK_COVER": "FALSE", "PRK_SECURE": "FALSE", "PRK_LOCKER": "FALSE", "PRK_SHEFF": "TRUE", "PRK_MSTAND": "FALSE", "PRK_PSTAND": "FALSE", "PRK_HOOP": "FALSE", "PRK_POST": "FALSE", "PRK_BUTERF": "FALSE", "PRK_WHEEL": "FALSE", "PRK_HANGAR": "FALSE", "PRK_TIER": "FALSE", "PRK_OTHER": "FALSE", "PRK_PROVIS": 9.0, "PRK_CPT": 18.0, "BOROUGH": "Westminster", "PHOTO1_URL": "https://cycleassetimages.data.tfl.gov.uk/RWG057632_1.jpg", "PHOTO2_URL": "https://cycleassetimages.data.tfl.gov.uk/RWG057632_2.jpg" }, "geometry": { "type": "Point", "coordinates": [ -0.1358994333, 51.513652510699998 ] } },
{ "type": "Feature", "properties": { "FEATURE_ID": "RWG057626", "SVDATE": "2017-06-28T00:00:00", "PRK_CARR": "FALSE", "PRK_COVER": "FALSE", "PRK_SECURE": "FALSE", "PRK_LOCKER": "FALSE", "PRK_SHEFF": "TRUE", "PRK_MSTAND": "FALSE", "PRK_PSTAND": "FALSE", "PRK_HOOP": "FALSE", "PRK_POST": "FALSE", "PRK_BUTERF": "FALSE", "PRK_WHEEL": "FALSE", "PRK_HANGAR": "FALSE", "PRK_TIER": "FALSE", "PRK_OTHER": "FALSE", "PRK_PROVIS": 16.0, "PRK_CPT": 32.0, "BOROUGH": "Westminster", "PHOTO1_URL": "https://cycleassetimages.data.tfl.gov.uk/RWG057626_1.jpg", "PHOTO2_URL": "https://cycleassetimages.data.tfl.gov.uk/RWG057626_2.jpg" }, "geometry": { "type": "Point", "coordinates": [ -0.1373038741, 51.513697423099998 ] } },
{ "type": "Feature", "properties": { "FEATURE_ID": "RWG057634", "SVDATE": "2017-06-28T00:00:00", "PRK_CARR": "FALSE", "PRK_COVER": "FALSE", "PRK_SECURE": "FALSE", "PRK_LOCKER": "FALSE", "PRK_SHEFF": "TRUE", "PRK_MSTAND": "FALSE", "PRK_PSTAND": "FALSE", "PRK_HOOP": "FALSE", "PRK_POST": "FALSE", "PRK_BUTERF": "FALSE", "PRK_WHEEL": "FALSE", "PRK_HANGAR": "FALSE", "PRK_TIER": "FALSE", "PRK_OTHER": "FALSE", "PRK_PROVIS": 4.0, "PRK_CPT": 8.0, "BOROUGH": "Westminster", "PHOTO1_URL": "https://cycleassetimages.data.tfl.gov.uk/RWG057634_1.jpg", "PHOTO2_URL": "https://cycleassetimages.data.tfl.gov.uk/RWG057634_2.jpg" }, "geometry": { "type": "Point", "coordinates": [ -0.1356865725, 51.513716369900003 ] } },
{ "type": "Feature", "properties": { "FEATURE_ID": "RWG057636", "SVDATE": "2017-06-28T00:00:00", "PRK_CARR": "FALSE", "PRK_COVER": "FALSE", "PRK_SECURE": "FALSE", "PRK_LOCKER": "FALSE", "PRK_SHEFF": "TRUE", "PRK_MSTAND": "FALSE", "PRK_PSTAND": "FALSE", "PRK_HOOP": "FALSE", "PRK_POST": "FALSE", "PRK_BUTERF": "FALSE", "PRK_WHEEL": "FALSE", "PRK_HANGAR": "FALSE", "PRK_TIER": "FALSE", "PRK_OTHER": "FALSE", "PRK_PROVIS": 4.0, "PRK_CPT": 8.0, "BOROUGH": "Westminster", "PHOTO1_URL": "https://cycleassetimages.data.tfl.gov.uk/RWG057636_1.jpg", "PHOTO2_URL": "https://cycleassetimages.data.tfl.gov.uk/RWG057636_2.jpg" }, "geometry": { "type": "Point", "coordinates": [ -0.1355380824, 51.513760796200003 ] } },
{ "type": "Feature", "properties": { "FEATURE_ID": "RWG057175", "SVDATE": "2017-06-27T00:00:00", "PRK_CARR": "FALSE", "PRK_COVER": "FALSE", "PRK_SECURE": "FALSE", "PRK_LOCKER": "FALSE", "PRK_SHEFF": "TRUE", "PRK_MSTAND": "FALSE", "PRK_PSTAND": "FALSE", "PRK_HOOP": "FALSE", "PRK_POST": "FALSE", "PRK_BUTERF": "FALSE", "PRK_WHEEL": "FALSE", "PRK_HANGAR": "FALSE", "PRK_TIER": "FALSE", "PRK_OTHER": "FALSE", "PRK_PROVIS": 4.0, "PRK_CPT": 8.0, "BOROUGH": "Westminster", "PHOTO1_URL": "https://cycleassetimages.data.tfl.gov.uk/RWG057175_1.jpg", "PHOTO2_URL": "https://cycleassetimages.data.tfl.gov.uk/RWG057175_2.jpg" }, "geometry": { "type": "Point", "coordinates": [ -0.1361719813, 51.514324847700003 ] } },
{ "type": "Feature", "properties": { "FEATURE_ID": "RWG057179", "SVDATE": "2017-06-27T00:00:00", "PRK_CARR": "FALSE", "PRK_COVER": "FALSE", "PRK_SECURE": "FALSE", "PRK_LOCKER": "FALSE", "PRK_SHEFF": "FALSE", "PRK_MSTAND": "FALSE", "PRK_PSTAND": "FALSE", "PRK_HOOP": "TRUE", "PRK_POST": "FALSE", "PRK_BUTERF": "FALSE", "PRK_WHEEL": "FALSE", "PRK_HANGAR": "FALSE", "PRK_TIER": "FALSE", "PRK_OTHER": "FALSE", "PRK_PROVIS": 1.0, "PRK_CPT": 2.0, "BOROUGH": "Westminster", "PHOTO1_URL": "https://cycleassetimages.data.tfl.gov.uk/RWG057179_1.jpg", "PHOTO2_URL": "https://cycleassetimages.data.tfl.gov.uk/RWG057179_2.jpg" }, "geometry": { "type": "Point", "coordinates": [ -0.1358037325, 51.514569010400002 ] } },
{ "type": "Feature", "properties": { "FEATURE_ID": "RWG057150", "SVDATE": "2017-06-27T00:00:00", "PRK_CARR": "FALSE", "PRK_COVER": "FALSE", "PRK_SECURE": "FALSE", "PRK_LOCKER": "FALSE", "PRK_SHEFF": "FALSE", "PRK_MSTAND": "FALSE", "PRK_PSTAND": "FALSE", "PRK_HOOP": "TRUE", "PRK_POST": "FALSE", "PRK_BUTERF": "FALSE", "PRK_WHEEL": "FALSE", "PRK_HANGAR": "FALSE", "PRK_TIER": "FALSE", "PRK_OTHER": "FALSE", "PRK_PROVIS": 5.0, "PRK_CPT": 10.0, "BOROUGH": "Westminster", "PHOTO1_URL": "https://cycleassetimages.data.tfl.gov.uk/RWG057150_1.jpg", "PHOTO2_URL": "https://cycleassetimages.data.tfl.gov.uk/RWG057150_2.jpg" }, "geometry": { "type": "Point", "coordinates": [ -0.1373948585, 51.514716197399999 ] } },
{ "type": "Feature", "properties": { "FEATURE_ID": "RWG057148", "SVDATE": "2017-06-27T00:00:00", "PRK_CARR": "FALSE", "PRK_COVER": "FALSE", "PRK_SECURE": "FALSE", "PRK_LOCKER": "FALSE", "PRK_SHEFF": "FALSE", "PRK_MSTAND": "FALSE", "PRK_PSTAND": "FALSE", "PRK_HOOP": "TRUE", "PRK_POST": "FALSE", "PRK_BUTERF": "FALSE", "PRK_WHEEL": "FALSE", "PRK_HANGAR": "FALSE", "PRK_TIER": "FALSE", "PRK_OTHER": "FALSE", "PRK_PROVIS": 1.0, "PRK_CPT": 2.0, "BOROUGH": "Westminster", "PHOTO1_URL": "https://cycleassetimages.data.tfl.gov.uk/RWG057148_1.jpg", "PHOTO2_URL": "https://cycleassetimages.data.tfl.gov.uk/RWG057148_2.jpg" }, "geometry": { "type": "Point", "coordinates": [ -0.1376408529, 51.5147853689 ] } },
{ "type": "Feature", "properties": { "FEATURE_ID": "RWG057327", "SVDATE": "2017-06-27T00:00:00", "PRK_CARR": "FALSE", "PRK_COVER": "FALSE", "PRK_SECURE": "FALSE", "PRK_LOCKER": "FALSE", "PRK_SHEFF": "FALSE", "PRK_MSTAND": "FALSE", "PRK_PSTAND": "FALSE", "PRK_HOOP": "TRUE", "PRK_POST": "FALSE", "PRK_BUTERF": "FALSE", "PRK_WHEEL": "FALSE", "PRK_HANGAR": "FALSE", "PRK_TIER": "FALSE", "PRK_OTHER": "FALSE", "PRK_PROVIS": 1.0, "PRK_CPT": 2.0, "BOROUGH": "Westminster", "PHOTO1_URL": "https://cycleassetimages.data.tfl.gov.uk/RWG057327_1.jpg", "PHOTO2_URL": "https://cycleassetimages.data.tfl.gov.uk/RWG057327_2.jpg" }, "geometry": { "type": "Point", "coordinates": [ -0.1342519936, 51.513937668899999 ] } },
{ "type": "Feature", "properties": { "FEATURE_ID": "RWG057182", "SVDATE": "2017-06-27T00:00:00", "PRK_CARR": "FALSE", "PRK_COVER": "FALSE", "PRK_SECURE": "FALSE", "PRK_LOCKER": "FALSE", "PRK_SHEFF": "FALSE", "PRK_MSTAND": "FALSE", "PRK_PSTAND": "FALSE", "PRK_HOOP": "TRUE", "PRK_POST": "FALSE", "PRK_BUTERF": "FALSE", "PRK_WHEEL": "FALSE", "PRK_HANGAR": "FALSE", "PRK_TIER": "FALSE", "PRK_OTHER": "FALSE", "PRK_PROVIS": 1.0, "PRK_CPT": 2.0, "BOROUGH": "Westminster", "PHOTO1_URL": "https://cycleassetimages.data.tfl.gov.uk/RWG057182_1.jpg", "PHOTO2_URL": "https://cycleassetimages.data.tfl.gov.uk/RWG057182_2.jpg" }, "geometry": { "type": "Point", "coordinates": [ -0.1353979773, 51.514078203499999 ] } },
{ "type": "Feature", "properties": { "FEATURE_ID": "RWG057456", "SVDATE": "2017-06-28T00:00:00", "PRK_CARR": "FALSE", "PRK_COVER": "FALSE", "PRK_SECURE": "FALSE", "PRK_LOCKER": "FALSE", "PRK_SHEFF": "FALSE", "PRK_MSTAND": "FALSE", "PRK_PSTAND": "FALSE", "PRK_HOOP": "TRUE", "PRK_POST": "FALSE", "PRK_BUTERF": "FALSE", "PRK_WHEEL": "FALSE", "PRK_HANGAR": "FALSE", "PRK_TIER": "FALSE", "PRK_OTHER": "FALSE", "PRK_PROVIS": 1.0, "PRK_CPT": 2.0, "BOROUGH": "Westminster", "PHOTO1_URL": "https://cycleassetimages.data.tfl.gov.uk/RWG057456_1.jpg", "PHOTO2_URL": "https://cycleassetimages.data.tfl.gov.uk/RWG057456_2.jpg" }, "geometry": { "type": "Point", "coordinates": [ -0.1329295533, 51.514149947200004 ] } },
{ "type": "Feature", "properties": { "FEATURE_ID": "RWG057293", "SVDATE": "2017-06-27T00:00:00", "PRK_CARR": "FALSE", "PRK_COVER": "FALSE", "PRK_SECURE": "FALSE", "PRK_LOCKER": "FALSE", "PRK_SHEFF": "FALSE", "PRK_MSTAND": "FALSE", "PRK_PSTAND": "FALSE", "PRK_HOOP": "TRUE", "PRK_POST": "FALSE", "PRK_BUTERF": "FALSE", "PRK_WHEEL": "FALSE", "PRK_HANGAR": "FALSE", "PRK_TIER": "FALSE", "PRK_OTHER": "FALSE", "PRK_PROVIS": 1.0, "PRK_CPT": 2.0, "BOROUGH": "Westminster", "PHOTO1_URL": "https://cycleassetimages.data.tfl.gov.uk/RWG057293_1.jpg", "PHOTO2_URL": "https://cycleassetimages.data.tfl.gov.uk/RWG057293_2.jpg" }, "geometry": { "type": "Point", "coordinates": [ -0.1318435342, 51.514183349299998 ] } },
{ "type": "Feature", "properties": { "FEATURE_ID": "RWG057290", "SVDATE": "2017-06-27T00:00:00", "PRK_CARR": "FALSE", "PRK_COVER": "FALSE", "PRK_SECURE": "FALSE", "PRK_LOCKER": "FALSE", "PRK_SHEFF": "TRUE", "PRK_MSTAND": "FALSE", "PRK_PSTAND": "FALSE", "PRK_HOOP": "FALSE", "PRK_POST": "FALSE", "PRK_BUTERF": "FALSE", "PRK_WHEEL": "FALSE", "PRK_HANGAR": "FALSE", "PRK_TIER": "FALSE", "PRK_OTHER": "FALSE", "PRK_PROVIS": 11.0, "PRK_CPT": 22.0, "BOROUGH": "Westminster", "PHOTO1_URL": "https://cycleassetimages.data.tfl.gov.uk/RWG057290_1.jpg", "PHOTO2_URL": "https://cycleassetimages.data.tfl.gov.uk/RWG057290_2.jpg" }, "geometry": { "type": "Point", "coordinates": [ -0.1318243731, 51.514800969100001 ] } },
{ "type": "Feature", "properties": { "FEATURE_ID": "RWG057286", "SVDATE": "2017-06-27T00:00:00", "PRK_CARR": "FALSE", "PRK_COVER": "FALSE", "PRK_SECURE": "FALSE", "PRK_LOCKER": "FALSE", "PRK_SHEFF": "FALSE", "PRK_MSTAND": "FALSE", "PRK_PSTAND": "FALSE", "PRK_HOOP": "TRUE", "PRK_POST": "FALSE", "PRK_BUTERF": "FALSE", "PRK_WHEEL": "FALSE", "PRK_HANGAR": "FALSE", "PRK_TIER": "FALSE", "PRK_OTHER": "FALSE", "PRK_PROVIS": 1.0, "PRK_CPT": 2.0, "BOROUGH": "Westminster", "PHOTO1_URL": "https://cycleassetimages.data.tfl.gov.uk/RWG057286_1.jpg", "PHOTO2_URL": "https://cycleassetimages.data.tfl.gov.uk/RWG057286_2.jpg" }, "geometry": { "type": "Point", "coordinates": [ -0.1321749656, 51.514815324499999 ] } },
{ "type": "Feature", "properties": { "FEATURE_ID": "RWG057192", "SVDATE": "2017-06-27T00:00:00", "PRK_CARR": "FALSE", "PRK_COVER": "FALSE", "PRK_SECURE": "FALSE", "PRK_LOCKER": "FALSE", "PRK_SHEFF": "FALSE", "PRK_MSTAND": "FALSE", "PRK_PSTAND": "FALSE", "PRK_HOOP": "TRUE", "PRK_POST": "FALSE", "PRK_BUTERF": "FALSE", "PRK_WHEEL": "FALSE", "PRK_HANGAR": "FALSE", "PRK_TIER": "FALSE", "PRK_OTHER": "FALSE", "PRK_PROVIS": 1.0, "PRK_CPT": 2.0, "BOROUGH": "Westminster", "PHOTO1_URL": "https://cycleassetimages.data.tfl.gov.uk/RWG057192_1.jpg", "PHOTO2_URL": "https://cycleassetimages.data.tfl.gov.uk/RWG057192_2.jpg" }, "geometry": { "type": "Point", "coordinates": [ -0.1352128656, 51.514842140799999 ] } },
{ "type": "Feature", "properties": { "FEATURE_ID": "RWG057285", "SVDATE": "2017-06-27T00:00:00", "PRK_CARR": "FALSE", "PRK_COVER": "FALSE", "PRK_SECURE": "FALSE", "PRK_LOCKER": "FALSE", "PRK_SHEFF": "FALSE", "PRK_MSTAND": "FALSE", "PRK_PSTAND": "FALSE", "PRK_HOOP": "TRUE", "PRK_POST": "FALSE", "PRK_BUTERF": "FALSE", "PRK_WHEEL": "FALSE", "PRK_HANGAR": "FALSE", "PRK_TIER": "FALSE", "PRK_OTHER": "FALSE", "PRK_PROVIS": 1.0, "PRK_CPT": 2.0, "BOROUGH": "Westminster", "PHOTO1_URL": "https://cycleassetimages.data.tfl.gov.uk/RWG057285_1.jpg", "PHOTO2_URL": "https://cycleassetimages.data.tfl.gov.uk/RWG057285_2.jpg" }, "geometry": { "type": "Point", "coordinates": [ -0.1318362482, 51.514912787599997 ] } },
{ "type": "Feature", "properties": { "FEATURE_ID": "RWG057311", "SVDATE": "2017-06-28T00:00:00", "PRK_CARR": "TRUE", "PRK_COVER": "FALSE", "PRK_SECURE": "FALSE", "PRK_LOCKER": "FALSE", "PRK_SHEFF": "TRUE", "PRK_MSTAND": "FALSE", "PRK_PSTAND": "FALSE", "PRK_HOOP": "FALSE", "PRK_POST": "FALSE", "PRK_BUTERF": "FALSE", "PRK_WHEEL": "FALSE", "PRK_HANGAR": "FALSE", "PRK_TIER": "FALSE", "PRK_OTHER": "FALSE", "PRK_PROVIS": 5.0, "PRK_CPT": 10.0, "BOROUGH": "Westminster", "PHOTO1_URL": "https://cycleassetimages.data.tfl.gov.uk/RWG057311_1.jpg", "PHOTO2_URL": "https://cycleassetimages.data.tfl.gov.uk/RWG057311_2.jpg" }, "geometry": { "type": "Point", "coordinates": [ -0.1345376353, 51.514920539400002 ] } },
{ "type": "Feature", "properties": { "FEATURE_ID": "RWG057283", "SVDATE": "2017-06-27T00:00:00", "PRK_CARR": "FALSE", "PRK_COVER": "FALSE", "PRK_SECURE": "FALSE", "PRK_LOCKER": "FALSE", "PRK_SHEFF": "FALSE", "PRK_MSTAND": "FALSE", "PRK_PSTAND": "FALSE", "PRK_HOOP": "TRUE", "PRK_POST": "FALSE", "PRK_BUTERF": "FALSE", "PRK_WHEEL": "FALSE", "PRK_HANGAR": "FALSE", "PRK_TIER": "FALSE", "PRK_OTHER": "FALSE", "PRK_PROVIS": 1.0, "PRK_CPT": 2.0, "BOROUGH": "Westminster", "PHOTO1_URL": "https://cycleassetimages.data.tfl.gov.uk/RWG057283_1.jpg", "PHOTO2_URL": "https://cycleassetimages.data.tfl.gov.uk/RWG057283_2.jpg" }, "geometry": { "type": "Point", "coordinates": [ -0.1317126386, 51.514951824 ] } },
{ "type": "Feature", "properties": { "FEATURE_ID": "RWG057149", "SVDATE": "2017-06-27T00:00:00", "PRK_CARR": "FALSE", "PRK_COVER": "FALSE", "PRK_SECURE": "FALSE", "PRK_LOCKER": "FALSE", "PRK_SHEFF": "FALSE", "PRK_MSTAND": "FALSE", "PRK_PSTAND": "FALSE", "PRK_HOOP": "TRUE", "PRK_POST": "FALSE", "PRK_BUTERF": "FALSE", "PRK_WHEEL": "FALSE", "PRK_HANGAR": "FALSE", "PRK_TIER": "FALSE", "PRK_OTHER": "FALSE", "PRK_PROVIS": 1.0, "PRK_CPT": 2.0, "BOROUGH": "Westminster", "PHOTO1_URL": "https://cycleassetimages.data.tfl.gov.uk/RWG057149_1.jpg", "PHOTO2_URL": "https://cycleassetimages.data.tfl.gov.uk/RWG057149_2.jpg" }, "geometry": { "type": "Point", "coordinates": [ -0.1374846548, 51.514826615899999 ] } },
{ "type": "Feature", "properties": { "FEATURE_ID": "RWG057226", "SVDATE": "2017-06-27T00:00:00", "PRK_CARR": "FALSE", "PRK_COVER": "FALSE", "PRK_SECURE": "FALSE", "PRK_LOCKER": "FALSE", "PRK_SHEFF": "TRUE", "PRK_MSTAND": "FALSE", "PRK_PSTAND": "FALSE", "PRK_HOOP": "FALSE", "PRK_POST": "FALSE", "PRK_BUTERF": "FALSE", "PRK_WHEEL": "FALSE", "PRK_HANGAR": "FALSE", "PRK_TIER": "FALSE", "PRK_OTHER": "FALSE", "PRK_PROVIS": 2.0, "PRK_CPT": 4.0, "BOROUGH": "Westminster", "PHOTO1_URL": "https://cycleassetimages.data.tfl.gov.uk/RWG057226_1.jpg", "PHOTO2_URL": "https://cycleassetimages.data.tfl.gov.uk/RWG057226_2.jpg" }, "geometry": { "type": "Point", "coordinates": [ -0.1365803359, 51.514938095600002 ] } },
{ "type": "Feature", "properties": { "FEATURE_ID": "RWG057225", "SVDATE": "2017-06-27T00:00:00", "PRK_CARR": "FALSE", "PRK_COVER": "FALSE", "PRK_SECURE": "FALSE", "PRK_LOCKER": "FALSE", "PRK_SHEFF": "TRUE", "PRK_MSTAND": "FALSE", "PRK_PSTAND": "FALSE", "PRK_HOOP": "FALSE", "PRK_POST": "FALSE", "PRK_BUTERF": "FALSE", "PRK_WHEEL": "FALSE", "PRK_HANGAR": "FALSE", "PRK_TIER": "FALSE", "PRK_OTHER": "FALSE", "PRK_PROVIS": 4.0, "PRK_CPT": 8.0, "BOROUGH": "Westminster", "PHOTO1_URL": "https://cycleassetimages.data.tfl.gov.uk/RWG057225_1.jpg", "PHOTO2_URL": "https://cycleassetimages.data.tfl.gov.uk/RWG057225_2.jpg" }, "geometry": { "type": "Point", "coordinates": [ -0.1364902458, 51.5149636875 ] } },
{ "type": "Feature", "properties": { "FEATURE_ID": "RWG058637", "SVDATE": "2017-09-04T00:00:00", "PRK_CARR": "FALSE", "PRK_COVER": "FALSE", "PRK_SECURE": "FALSE", "PRK_LOCKER": "FALSE", "PRK_SHEFF": "TRUE", "PRK_MSTAND": "FALSE", "PRK_PSTAND": "FALSE", "PRK_HOOP": "FALSE", "PRK_POST": "FALSE", "PRK_BUTERF": "FALSE", "PRK_WHEEL": "FALSE", "PRK_HANGAR": "FALSE", "PRK_TIER": "FALSE", "PRK_OTHER": "FALSE", "PRK_PROVIS": 14.0, "PRK_CPT": 28.0, "BOROUGH": "Westminster", "PHOTO1_URL": "https://cycleassetimages.data.tfl.gov.uk/RWG058637_1.jpg", "PHOTO2_URL": "https://cycleassetimages.data.tfl.gov.uk/RWG058637_2.jpg" }, "geometry": { "type": "Point", "coordinates": [ -0.1364042317, 51.514990617400002 ] } },
{ "type": "Feature", "properties": { "FEATURE_ID": "RWG058638", "SVDATE": "2017-09-04T00:00:00", "PRK_CARR": "FALSE", "PRK_COVER": "FALSE", "PRK_SECURE": "FALSE", "PRK_LOCKER": "FALSE", "PRK_SHEFF": "TRUE", "PRK_MSTAND": "FALSE", "PRK_PSTAND": "FALSE", "PRK_HOOP": "FALSE", "PRK_POST": "FALSE", "PRK_BUTERF": "FALSE", "PRK_WHEEL": "FALSE", "PRK_HANGAR": "FALSE", "PRK_TIER": "FALSE", "PRK_OTHER": "FALSE", "PRK_PROVIS": 3.0, "PRK_CPT": 6.0, "BOROUGH": "Westminster", "PHOTO1_URL": "https://cycleassetimages.data.tfl.gov.uk/RWG058638_1.jpg", "PHOTO2_URL": "https://cycleassetimages.data.tfl.gov.uk/RWG058638_2.jpg" }, "geometry": { "type": "Point", "coordinates": [ -0.1363242842, 51.515010584400002 ] } },
{ "type": "Feature", "properties": { "FEATURE_ID": "RWG057228", "SVDATE": "2017-06-27T00:00:00", "PRK_CARR": "FALSE", "PRK_COVER": "FALSE", "PRK_SECURE": "FALSE", "PRK_LOCKER": "FALSE", "PRK_SHEFF": "FALSE", "PRK_MSTAND": "FALSE", "PRK_PSTAND": "FALSE", "PRK_HOOP": "TRUE", "PRK_POST": "FALSE", "PRK_BUTERF": "FALSE", "PRK_WHEEL": "FALSE", "PRK_HANGAR": "FALSE", "PRK_TIER": "FALSE", "PRK_OTHER": "FALSE", "PRK_PROVIS": 1.0, "PRK_CPT": 2.0, "BOROUGH": "Westminster", "PHOTO1_URL": "https://cycleassetimages.data.tfl.gov.uk/RWG057228_1.jpg", "PHOTO2_URL": "https://cycleassetimages.data.tfl.gov.uk/RWG057228_2.jpg" }, "geometry": { "type": "Point", "coordinates": [ -0.1367277272, 51.515034114099997 ] } },
{ "type": "Feature", "properties": { "FEATURE_ID": "RWG057227", "SVDATE": "2017-06-27T00:00:00", "PRK_CARR": "FALSE", "PRK_COVER": "FALSE", "PRK_SECURE": "FALSE", "PRK_LOCKER": "FALSE", "PRK_SHEFF": "TRUE", "PRK_MSTAND": "FALSE", "PRK_PSTAND": "FALSE", "PRK_HOOP": "FALSE", "PRK_POST": "FALSE", "PRK_BUTERF": "FALSE", "PRK_WHEEL": "FALSE", "PRK_HANGAR": "FALSE", "PRK_TIER": "FALSE", "PRK_OTHER": "FALSE", "PRK_PROVIS": 4.0, "PRK_CPT": 8.0, "BOROUGH": "Westminster", "PHOTO1_URL": "https://cycleassetimages.data.tfl.gov.uk/RWG057227_1.jpg", "PHOTO2_URL": "https://cycleassetimages.data.tfl.gov.uk/RWG057227_2.jpg" }, "geometry": { "type": "Point", "coordinates": [ -0.1365274473, 51.515088699899998 ] } },
{ "type": "Feature", "properties": { "FEATURE_ID": "RWG057199", "SVDATE": "2017-06-27T00:00:00", "PRK_CARR": "FALSE", "PRK_COVER": "FALSE", "PRK_SECURE": "FALSE", "PRK_LOCKER": "FALSE", "PRK_SHEFF": "FALSE", "PRK_MSTAND": "FALSE", "PRK_PSTAND": "FALSE", "PRK_HOOP": "TRUE", "PRK_POST": "FALSE", "PRK_BUTERF": "FALSE", "PRK_WHEEL": "FALSE", "PRK_HANGAR": "FALSE", "PRK_TIER": "FALSE", "PRK_OTHER": "FALSE", "PRK_PROVIS": 1.0, "PRK_CPT": 2.0, "BOROUGH": "Westminster", "PHOTO1_URL": "https://cycleassetimages.data.tfl.gov.uk/RWG057199_1.jpg", "PHOTO2_URL": "https://cycleassetimages.data.tfl.gov.uk/RWG057199_2.jpg" }, "geometry": { "type": "Point", "coordinates": [ -0.1355144711, 51.515248645200003 ] } },
{ "type": "Feature", "properties": { "FEATURE_ID": "RWG057152", "SVDATE": "2017-06-27T00:00:00", "PRK_CARR": "FALSE", "PRK_COVER": "FALSE", "PRK_SECURE": "FALSE", "PRK_LOCKER": "FALSE", "PRK_SHEFF": "FALSE", "PRK_MSTAND": "FALSE", "PRK_PSTAND": "FALSE", "PRK_HOOP": "TRUE", "PRK_POST": "FALSE", "PRK_BUTERF": "FALSE", "PRK_WHEEL": "FALSE", "PRK_HANGAR": "FALSE", "PRK_TIER": "FALSE", "PRK_OTHER": "FALSE", "PRK_PROVIS": 1.0, "PRK_CPT": 2.0, "BOROUGH": "Westminster", "PHOTO1_URL": "https://cycleassetimages.data.tfl.gov.uk/RWG057152_1.jpg", "PHOTO2_URL": "https://cycleassetimages.data.tfl.gov.uk/RWG057152_2.jpg" }, "geometry": { "type": "Point", "coordinates": [ -0.1374073701, 51.515250200899999 ] } },
{ "type": "Feature", "properties": { "FEATURE_ID": "RWG057205", "SVDATE": "2017-06-27T00:00:00", "PRK_CARR": "FALSE", "PRK_COVER": "FALSE", "PRK_SECURE": "FALSE", "PRK_LOCKER": "FALSE", "PRK_SHEFF": "FALSE", "PRK_MSTAND": "FALSE", "PRK_PSTAND": "FALSE", "PRK_HOOP": "TRUE", "PRK_POST": "FALSE", "PRK_BUTERF": "FALSE", "PRK_WHEEL": "FALSE", "PRK_HANGAR": "FALSE", "PRK_TIER": "FALSE", "PRK_OTHER": "FALSE", "PRK_PROVIS": 1.0, "PRK_CPT": 2.0, "BOROUGH": "Westminster", "PHOTO1_URL": "https://cycleassetimages.data.tfl.gov.uk/RWG057205_1.jpg", "PHOTO2_URL": "https://cycleassetimages.data.tfl.gov.uk/RWG057205_2.jpg" }, "geometry": { "type": "Point", "coordinates": [ -0.1355087608, 51.515348449100003 ] } },
{ "type": "Feature", "properties": { "FEATURE_ID": "RWG057139", "SVDATE": "2017-06-27T00:00:00", "PRK_CARR": "FALSE", "PRK_COVER": "FALSE", "PRK_SECURE": "FALSE", "PRK_LOCKER": "FALSE", "PRK_SHEFF": "FALSE", "PRK_MSTAND": "FALSE", "PRK_PSTAND": "FALSE", "PRK_HOOP": "TRUE", "PRK_POST": "FALSE", "PRK_BUTERF": "FALSE", "PRK_WHEEL": "FALSE", "PRK_HANGAR": "FALSE", "PRK_TIER": "FALSE", "PRK_OTHER": "FALSE", "PRK_PROVIS": 1.0, "PRK_CPT": 2.0, "BOROUGH": "Westminster", "PHOTO1_URL": "https://cycleassetimages.data.tfl.gov.uk/RWG057139_1.jpg", "PHOTO2_URL": "https://cycleassetimages.data.tfl.gov.uk/RWG057139_2.jpg" }, "geometry": { "type": "Point", "coordinates": [ -0.1390968502, 51.514392628499998 ] } },
{ "type": "Feature", "properties": { "FEATURE_ID": "RWG057146", "SVDATE": "2017-06-27T00:00:00", "PRK_CARR": "FALSE", "PRK_COVER": "FALSE", "PRK_SECURE": "FALSE", "PRK_LOCKER": "FALSE", "PRK_SHEFF": "FALSE", "PRK_MSTAND": "FALSE", "PRK_PSTAND": "FALSE", "PRK_HOOP": "TRUE", "PRK_POST": "FALSE", "PRK_BUTERF": "FALSE", "PRK_WHEEL": "FALSE", "PRK_HANGAR": "FALSE", "PRK_TIER": "FALSE", "PRK_OTHER": "FALSE", "PRK_PROVIS": 1.0, "PRK_CPT": 2.0, "BOROUGH": "Westminster", "PHOTO1_URL": "https://cycleassetimages.data.tfl.gov.uk/RWG057146_1.jpg", "PHOTO2_URL": "https://cycleassetimages.data.tfl.gov.uk/RWG057146_2.jpg" }, "geometry": { "type": "Point", "coordinates": [ -0.138626233, 51.5143956406 ] } },
{ "type": "Feature", "properties": { "FEATURE_ID": "RWG057140", "SVDATE": "2017-06-27T00:00:00", "PRK_CARR": "FALSE", "PRK_COVER": "FALSE", "PRK_SECURE": "FALSE", "PRK_LOCKER": "FALSE", "PRK_SHEFF": "TRUE", "PRK_MSTAND": "FALSE", "PRK_PSTAND": "FALSE", "PRK_HOOP": "FALSE", "PRK_POST": "FALSE", "PRK_BUTERF": "FALSE", "PRK_WHEEL": "FALSE", "PRK_HANGAR": "FALSE", "PRK_TIER": "FALSE", "PRK_OTHER": "FALSE", "PRK_PROVIS": 3.0, "PRK_CPT": 6.0, "BOROUGH": "Westminster", "PHOTO1_URL": "https://cycleassetimages.data.tfl.gov.uk/RWG057140_1.jpg", "PHOTO2_URL": "https://cycleassetimages.data.tfl.gov.uk/RWG057140_2.jpg" }, "geometry": { "type": "Point", "coordinates": [ -0.1389107373, 51.514440656300003 ] } },
{ "type": "Feature", "properties": { "FEATURE_ID": "RWG057142", "SVDATE": "2017-06-27T00:00:00", "PRK_CARR": "FALSE", "PRK_COVER": "FALSE", "PRK_SECURE": "FALSE", "PRK_LOCKER": "FALSE", "PRK_SHEFF": "FALSE", "PRK_MSTAND": "FALSE", "PRK_PSTAND": "FALSE", "PRK_HOOP": "TRUE", "PRK_POST": "FALSE", "PRK_BUTERF": "FALSE", "PRK_WHEEL": "FALSE", "PRK_HANGAR": "FALSE", "PRK_TIER": "FALSE", "PRK_OTHER": "FALSE", "PRK_PROVIS": 1.0, "PRK_CPT": 2.0, "BOROUGH": "Westminster", "PHOTO1_URL": "https://cycleassetimages.data.tfl.gov.uk/RWG057142_1.jpg", "PHOTO2_URL": "https://cycleassetimages.data.tfl.gov.uk/RWG057142_2.jpg" }, "geometry": { "type": "Point", "coordinates": [ -0.1387716296, 51.514472315699997 ] } },
{ "type": "Feature", "properties": { "FEATURE_ID": "RWG057147", "SVDATE": "2017-06-27T00:00:00", "PRK_CARR": "FALSE", "PRK_COVER": "FALSE", "PRK_SECURE": "FALSE", "PRK_LOCKER": "FALSE", "PRK_SHEFF": "TRUE", "PRK_MSTAND": "FALSE", "PRK_PSTAND": "FALSE", "PRK_HOOP": "FALSE", "PRK_POST": "FALSE", "PRK_BUTERF": "FALSE", "PRK_WHEEL": "FALSE", "PRK_HANGAR": "FALSE", "PRK_TIER": "FALSE", "PRK_OTHER": "FALSE", "PRK_PROVIS": 5.0, "PRK_CPT": 10.0, "BOROUGH": "Westminster", "PHOTO1_URL": "https://cycleassetimages.data.tfl.gov.uk/RWG057147_1.jpg", "PHOTO2_URL": "https://cycleassetimages.data.tfl.gov.uk/RWG057147_2.jpg" }, "geometry": { "type": "Point", "coordinates": [ -0.1384659996, 51.5145574306 ] } },
{ "type": "Feature", "properties": { "FEATURE_ID": "RWG057155", "SVDATE": "2017-06-27T00:00:00", "PRK_CARR": "FALSE", "PRK_COVER": "FALSE", "PRK_SECURE": "FALSE", "PRK_LOCKER": "FALSE", "PRK_SHEFF": "TRUE", "PRK_MSTAND": "FALSE", "PRK_PSTAND": "FALSE", "PRK_HOOP": "FALSE", "PRK_POST": "FALSE", "PRK_BUTERF": "FALSE", "PRK_WHEEL": "FALSE", "PRK_HANGAR": "FALSE", "PRK_TIER": "FALSE", "PRK_OTHER": "FALSE", "PRK_PROVIS": 4.0, "PRK_CPT": 8.0, "BOROUGH": "Westminster", "PHOTO1_URL": "https://cycleassetimages.data.tfl.gov.uk/RWG057155_1.jpg", "PHOTO2_URL": "https://cycleassetimages.data.tfl.gov.uk/RWG057155_2.jpg" }, "geometry": { "type": "Point", "coordinates": [ -0.1391051775, 51.515220542400002 ] } },
{ "type": "Feature", "properties": { "FEATURE_ID": "RWG057644", "SVDATE": "2017-06-28T00:00:00", "PRK_CARR": "FALSE", "PRK_COVER": "FALSE", "PRK_SECURE": "FALSE", "PRK_LOCKER": "FALSE", "PRK_SHEFF": "TRUE", "PRK_MSTAND": "FALSE", "PRK_PSTAND": "FALSE", "PRK_HOOP": "FALSE", "PRK_POST": "FALSE", "PRK_BUTERF": "FALSE", "PRK_WHEEL": "FALSE", "PRK_HANGAR": "FALSE", "PRK_TIER": "FALSE", "PRK_OTHER": "FALSE", "PRK_PROVIS": 4.0, "PRK_CPT": 8.0, "BOROUGH": "Westminster", "PHOTO1_URL": "https://cycleassetimages.data.tfl.gov.uk/RWG057644_1.jpg", "PHOTO2_URL": "https://cycleassetimages.data.tfl.gov.uk/RWG057644_2.jpg" }, "geometry": { "type": "Point", "coordinates": [ -0.1412386892, 51.515204609599998 ] } },
{ "type": "Feature", "properties": { "FEATURE_ID": "RWG057265", "SVDATE": "2017-06-27T00:00:00", "PRK_CARR": "FALSE", "PRK_COVER": "FALSE", "PRK_SECURE": "FALSE", "PRK_LOCKER": "FALSE", "PRK_SHEFF": "FALSE", "PRK_MSTAND": "FALSE", "PRK_PSTAND": "FALSE", "PRK_HOOP": "TRUE", "PRK_POST": "FALSE", "PRK_BUTERF": "FALSE", "PRK_WHEEL": "FALSE", "PRK_HANGAR": "FALSE", "PRK_TIER": "FALSE", "PRK_OTHER": "FALSE", "PRK_PROVIS": 1.0, "PRK_CPT": 2.0, "BOROUGH": "Westminster", "PHOTO1_URL": "https://cycleassetimages.data.tfl.gov.uk/RWG057265_1.jpg", "PHOTO2_URL": "https://cycleassetimages.data.tfl.gov.uk/RWG057265_2.jpg" }, "geometry": { "type": "Point", "coordinates": [ -0.1327678976, 51.515072932800003 ] } },
{ "type": "Feature", "properties": { "FEATURE_ID": "RWG057201", "SVDATE": "2017-06-27T00:00:00", "PRK_CARR": "FALSE", "PRK_COVER": "FALSE", "PRK_SECURE": "FALSE", "PRK_LOCKER": "FALSE", "PRK_SHEFF": "FALSE", "PRK_MSTAND": "FALSE", "PRK_PSTAND": "FALSE", "PRK_HOOP": "TRUE", "PRK_POST": "FALSE", "PRK_BUTERF": "FALSE", "PRK_WHEEL": "FALSE", "PRK_HANGAR": "FALSE", "PRK_TIER": "FALSE", "PRK_OTHER": "FALSE", "PRK_PROVIS": 1.0, "PRK_CPT": 2.0, "BOROUGH": "Westminster", "PHOTO1_URL": "https://cycleassetimages.data.tfl.gov.uk/RWG057201_1.jpg", "PHOTO2_URL": "https://cycleassetimages.data.tfl.gov.uk/RWG057201_2.jpg" }, "geometry": { "type": "Point", "coordinates": [ -0.1353195887, 51.515083091299999 ] } },
{ "type": "Feature", "properties": { "FEATURE_ID": "RWG057268", "SVDATE": "2017-06-27T00:00:00", "PRK_CARR": "FALSE", "PRK_COVER": "FALSE", "PRK_SECURE": "FALSE", "PRK_LOCKER": "FALSE", "PRK_SHEFF": "FALSE", "PRK_MSTAND": "FALSE", "PRK_PSTAND": "FALSE", "PRK_HOOP": "TRUE", "PRK_POST": "FALSE", "PRK_BUTERF": "FALSE", "PRK_WHEEL": "FALSE", "PRK_HANGAR": "FALSE", "PRK_TIER": "FALSE", "PRK_OTHER": "FALSE", "PRK_PROVIS": 1.0, "PRK_CPT": 2.0, "BOROUGH": "Westminster", "PHOTO1_URL": "https://cycleassetimages.data.tfl.gov.uk/RWG057268_1.jpg", "PHOTO2_URL": "https://cycleassetimages.data.tfl.gov.uk/RWG057268_2.jpg" }, "geometry": { "type": "Point", "coordinates": [ -0.1329000605, 51.515270859200001 ] } },
{ "type": "Feature", "properties": { "FEATURE_ID": "RWG057269", "SVDATE": "2017-06-27T00:00:00", "PRK_CARR": "FALSE", "PRK_COVER": "FALSE", "PRK_SECURE": "FALSE", "PRK_LOCKER": "FALSE", "PRK_SHEFF": "FALSE", "PRK_MSTAND": "FALSE", "PRK_PSTAND": "FALSE", "PRK_HOOP": "TRUE", "PRK_POST": "FALSE", "PRK_BUTERF": "FALSE", "PRK_WHEEL": "FALSE", "PRK_HANGAR": "FALSE", "PRK_TIER": "FALSE", "PRK_OTHER": "FALSE", "PRK_PROVIS": 1.0, "PRK_CPT": 2.0, "BOROUGH": "Westminster", "PHOTO1_URL": "https://cycleassetimages.data.tfl.gov.uk/RWG057269_1.jpg", "PHOTO2_URL": "https://cycleassetimages.data.tfl.gov.uk/RWG057269_2.jpg" }, "geometry": { "type": "Point", "coordinates": [ -0.1329813809, 51.515384907799998 ] } },
{ "type": "Feature", "properties": { "FEATURE_ID": "RWG057696", "SVDATE": "2017-06-29T00:00:00", "PRK_CARR": "FALSE", "PRK_COVER": "FALSE", "PRK_SECURE": "FALSE", "PRK_LOCKER": "FALSE", "PRK_SHEFF": "TRUE", "PRK_MSTAND": "FALSE", "PRK_PSTAND": "FALSE", "PRK_HOOP": "FALSE", "PRK_POST": "FALSE", "PRK_BUTERF": "FALSE", "PRK_WHEEL": "FALSE", "PRK_HANGAR": "FALSE", "PRK_TIER": "FALSE", "PRK_OTHER": "FALSE", "PRK_PROVIS": 4.0, "PRK_CPT": 7.0, "BOROUGH": "Westminster", "PHOTO1_URL": "https://cycleassetimages.data.tfl.gov.uk/RWG057696_1.jpg", "PHOTO2_URL": "https://cycleassetimages.data.tfl.gov.uk/RWG057696_2.jpg" }, "geometry": { "type": "Point", "coordinates": [ -0.1411497935, 51.512254196100002 ] } },
{ "type": "Feature", "properties": { "FEATURE_ID": "RWG058422", "SVDATE": "2017-07-25T00:00:00", "PRK_CARR": "FALSE", "PRK_COVER": "FALSE", "PRK_SECURE": "FALSE", "PRK_LOCKER": "FALSE", "PRK_SHEFF": "FALSE", "PRK_MSTAND": "FALSE", "PRK_PSTAND": "FALSE", "PRK_HOOP": "TRUE", "PRK_POST": "FALSE", "PRK_BUTERF": "FALSE", "PRK_WHEEL": "FALSE", "PRK_HANGAR": "FALSE", "PRK_TIER": "FALSE", "PRK_OTHER": "FALSE", "PRK_PROVIS": 1.0, "PRK_CPT": 2.0, "BOROUGH": "Westminster", "PHOTO1_URL": "https://cycleassetimages.data.tfl.gov.uk/RWG058422_1.jpg", "PHOTO2_URL": "https://cycleassetimages.data.tfl.gov.uk/RWG058422_2.jpg" }, "geometry": { "type": "Point", "coordinates": [ -0.1415276696, 51.512457912899997 ] } },
{ "type": "Feature", "properties": { "FEATURE_ID": "RWG057604", "SVDATE": "2017-06-28T00:00:00", "PRK_CARR": "FALSE", "PRK_COVER": "FALSE", "PRK_SECURE": "FALSE", "PRK_LOCKER": "FALSE", "PRK_SHEFF": "FALSE", "PRK_MSTAND": "FALSE", "PRK_PSTAND": "FALSE", "PRK_HOOP": "TRUE", "PRK_POST": "FALSE", "PRK_BUTERF": "FALSE", "PRK_WHEEL": "FALSE", "PRK_HANGAR": "FALSE", "PRK_TIER": "FALSE", "PRK_OTHER": "FALSE", "PRK_PROVIS": 1.0, "PRK_CPT": 2.0, "BOROUGH": "Westminster", "PHOTO1_URL": "https://cycleassetimages.data.tfl.gov.uk/RWG057604_1.jpg", "PHOTO2_URL": "https://cycleassetimages.data.tfl.gov.uk/RWG057604_2.jpg" }, "geometry": { "type": "Point", "coordinates": [ -0.1408528337, 51.513764232 ] } },
{ "type": "Feature", "properties": { "FEATURE_ID": "RWG057707", "SVDATE": "2017-06-28T00:00:00", "PRK_CARR": "FALSE", "PRK_COVER": "FALSE", "PRK_SECURE": "FALSE", "PRK_LOCKER": "FALSE", "PRK_SHEFF": "FALSE", "PRK_MSTAND": "FALSE", "PRK_PSTAND": "FALSE", "PRK_HOOP": "TRUE", "PRK_POST": "FALSE", "PRK_BUTERF": "FALSE", "PRK_WHEEL": "FALSE", "PRK_HANGAR": "FALSE", "PRK_TIER": "FALSE", "PRK_OTHER": "FALSE", "PRK_PROVIS": 1.0, "PRK_CPT": 2.0, "BOROUGH": "Westminster", "PHOTO1_URL": "https://cycleassetimages.data.tfl.gov.uk/RWG057707_1.jpg", "PHOTO2_URL": "https://cycleassetimages.data.tfl.gov.uk/RWG057707_2.jpg" }, "geometry": { "type": "Point", "coordinates": [ -0.1416767912, 51.513911323099997 ] } }
]
}
