{
"type": "FeatureCollection",
"name": "soho_loading_bays",
"crs": { "type": "name", "properties": { "name": "urn:ogc:def:crs:OGC:1.3:CRS84" } },
"features": [
{ "type": "Feature", "properties": { "street": "Frith Street", "lat": 51.514769, "lon": -0.132311 }, "geometry": { "type": "Point", "coordinates": [ -0.132311, 51.514769 ] } },
{ "type": "Feature", "properties": { "street": "Dean Street", "lat": 51.515142, "lon": -0.133475 }, "geometry": { "type": "Point", "coordinates": [ -0.133475, 51.515142 ] } },
{ "type": "Feature", "properties": { "street": "Greek Street", "lat": 51.514265, "lon": -0.131016 }, "geometry": { "type": "Point", "coordinates": [ -0.131016, 51.514265 ] } },
{ "type": "Feature", "properties": { "street": "Kingly Street", "lat": 51.512062, "lon": -0.139314 }, "geometry": { "type": "Point", "coordinates": [ -0.139314, 51.512062 ] } },
{ "type": "Feature", "properties": { "street": "Kingly Street", "lat": 51.512362, "lon": -0.139314 }, "geometry": { "type": "Point", "coordinates": [ -0.139314, 51.512362 ] } },
{ "type": "Feature", "properties": { "street": "Kingly Street", "lat": 51.512662, "lon": -0.139314 }, "geometry": { "type": "Point", "coordinates": [ -0.139314, 51.512662 ] } },
{ "type": "Feature", "properties": { "street": "Kingly Street", "lat": 51.512962, "lon": -0.139314 }, "geometry": { "type": "Point", "coordinates": [ -0.139314, 51.512962 ] } },
{ "type": "Feature", "properties": { "street": "Kingly Street", "lat": 51.513262, "lon": -0.139314 }, "geometry": { "type": "Point", "coordinates": [ -0.139314, 51.513262 ] } },
{ "type": "Feature", "properties": { "street": "Marshall Street", "lat": 51.512902, "lon": -0.137594 }, "geometry": { "type": "Point", "coordinates": [ -0.137594, 51.512902 ] } },
{ "type": "Feature", "properties": { "street": "Rupert Street", "lat": 51.512214, "lon": -0.133633 }, "geometry": { "type": "Point", "coordinates": [ -0.133633, 51.512214 ] } }
]
}
