{"type": "FeatureCollection", "features": [{"type": "Feature", "properties": {"street": "Charing Cross Road"}, "geometry": {"type": "Point", "coordinates": [-0.1285716, 51.512339]}}, {"type": "Feature", "properties": {"street": "Charles II Street"}, "geometry": {"type": "Point", "coordinates": [-0.1323325, 51.5082613]}}, {"type": "Feature", "properties": {"street": "Cranbourn Street"}, "geometry": {"type": "Point", "coordinates": [-0.1277549, 51.5115691]}}, {"type": "Feature", "properties": {"street": "Drury Lane"}, "geometry": {"type": "Point", "coordinates": [-0.1218445, 51.5144829]}}, {"type": "Feature", "properties": {"street": "Frith Street"}, "geometry": {"type": "Point", "coordinates": [-0.1307391, 51.5125082]}}, {"type": "Feature", "properties": {"street": "Great Titchfield Street"}, "geometry": {"type": "Point", "coordinates": [-0.1417186, 51.5210794]}}, {"type": "Feature", "properties": {"street": "Haymarket"}, "geometry": {"type": "Point", "coordinates": [-0.1320752, 51.5088571]}}, {"type": "Feature", "properties": {"street": "Haymarket"}, "geometry": {"type": "Point", "coordinates": [-0.1320752, 51.5088571]}}, {"type": "Feature", "properties": {"street": "Haymarket"}, "geometry": {"type": "Point", "coordinates": [-0.1320752, 51.5088571]}}, {"type": "Feature", "properties": {"street": "James Street, Marylebone"}, "geometry": {"type": "Point", "coordinates": [-0.1507537, 51.5153358]}}, {"type": "Feature", "properties": {"street": "Jermyn Street"}, "geometry": {"type": "Point", "coordinates": [-0.1382248, 51.5079027]}}, {"type": "Feature", "properties": {"street": "Long Acre"}, "geometry": {"type": "Point", "coordinates": [-0.1225815, 51.514207]}}, {"type": "Feature", "properties": {"street": "Long Acre"}, "geometry": {"type": "Point", "coordinates": [-0.1225815, 51.514207]}}, {"type": "Feature", "properties": {"street": "Long Acre"}, "geometry": {"type": "Point", "coordinates": [-0.1225815, 51.514207]}}, {"type": "Feature", "properties": {"street": "Long Acre"}, "geometry": {"type": "Point", "coordinates": [-0.1225815, 51.514207]}}, {"type": "Feature", "properties": {"street": "Long Acre"}, "geometry": {"type": "Point", "coordinates": [-0.1225815, 51.514207]}}, {"type": "Feature", "properties": {"street": "Long Acre"}, "geometry": {"type": "Point", "coordinates": [-0.1225815, 51.514207]}}, {"type": "Feature", "properties": {"street": "Long Acre"}, "geometry": {"type": "Point", "coordinates": [-0.1225815, 51.514207]}}, {"type": "Feature", "properties": {"street": "Market Place"}, "geometry": {"type": "Point", "coordinates": [-0.1399589, 51.5163494]}}, {"type": "Feature", "properties": {"street": "Market Place"}, "geometry": {"type": "Point", "coordinates": [-0.1399589, 51.5163494]}}, {"type": "Feature", "properties": {"street": "Market Place"}, "geometry": {"type": "Point", "coordinates": [-0.1399589, 51.5163494]}}, {"type": "Feature", "properties": {"street": "Marylebone High Street"}, "geometry": {"type": "Point", "coordinates": [-0.1514406, 51.5221847]}}, {"type": "Feature", "properties": {"street": "Pall Mall"}, "geometry": {"type": "Point", "coordinates": [-0.1337048, 51.506783]}}, {"type": "Feature", "properties": {"street": "Panton Street"}, "geometry": {"type": "Point", "coordinates": [-0.1307023, 51.5099019]}}, {"type": "Feature", "properties": {"street": "Ramillies Place"}, "geometry": {"type": "Point", "coordinates": [-0.13924, 51.5150319]}}, {"type": "Feature", "properties": {"street": "Regent Street"}, "geometry": {"type": "Point", "coordinates": [-0.1393013, 51.5116775]}}, {"type": "Feature", "properties": {"street": "Dean Street"}, "geometry": {"type": "Point", "coordinates": [-0.1326445, 51.5139045]}}, {"type": "Feature", "properties": {"street": "Greek Street"}, "geometry": {"type": "Point", "coordinates": [-0.1303569, 51.5133101]}}, {"type": "Feature", "properties": {"street": "Kingly Street"}, "geometry": {"type": "Point", "coordinates": [-0.1393137, 51.5126623]}}, {"type": "Feature", "properties": {"street": "Kingly Street"}, "geometry": {"type": "Point", "coordinates": [-0.1393137, 51.5126623]}}, {"type": "Feature", "properties": {"street": "Kingly Street"}, "geometry": {"type": "Point", "coordinates": [-0.1393137, 51.5126623]}}, {"type": "Feature", "properties": {"street": "Kingly Street"}, "geometry": {"type": "Point", "coordinates": [-0.1393137, 51.5126623]}}, {"type": "Feature", "properties": {"street": "Kingly Street"}, "geometry": {"type": "Point", "coordinates": [-0.1393137, 51.5126623]}}, {"type": "Feature", "properties": {"street": "Marshall Street"}, "geometry": {"type": "Point", "coordinates": [-0.137828, 51.5132253]}}, {"type": "Feature", "properties": {"street": "New Bond Street"}, "geometry": {"type": "Point", "coordinates": [-0.1451668, 51.5129721]}}, {"type": "Feature", "properties": {"street": "New Bond Street"}, "geometry": {"type": "Point", "coordinates": [-0.1451668, 51.5129721]}}, {"type": "Feature", "properties": {"street": "Rupert Street"}, "geometry": {"type": "Point", "coordinates": [-0.1333642, 51.5119211]}}, {"type": "Feature", "properties": {"street": "St James's Street"}, "geometry": {"type": "Point", "coordinates": [-0.1379806, 51.5051069]}}, {"type": "Feature", "properties": {"street": "Whitehall"}, "geometry": {"type": "Point", "coordinates": [-0.126329, 51.5042602]}}]}